{"type":"FeatureCollection","bbox":[-22,4,74,54],"features":[{"type":"Feature","properties":{"name":"Eğirdir","featurecla":"Lake","scalerank":9,"min_zoom":7},"geometry":{"type":"Polygon","coordinates":[[[30.8098,38.2707],[30.7521,38.223],[30.755,38.1712],[30.8436,38.1111],[30.8522,38.077],[30.7718,37.9593],[30.8766,37.8524],[30.9667,37.9902],[30.9243,38.122],[30.8563,38.1503],[30.8931,38.2748],[30.8098,38.2707]]]}},{"type":"Feature","properties":{"name":"Beyşehir","featurecla":"Lake","scalerank":7,"min_zoom":5.7},"geometry":{"type":"Polygon","coordinates":[[[31.4856,37.6104],[31.5239,37.6048],[31.5157,37.6284],[31.5263,37.6357],[31.7064,37.6764],[31.7023,37.7049],[31.6464,37.7959],[31.6022,37.7812],[31.5616,37.8695],[31.4185,37.9772],[31.3187,37.9504],[31.324,37.918],[31.4591,37.7179],[31.4565,37.6281],[31.465,37.6078],[31.4856,37.6104]]]}},{"type":"Feature","properties":{"name":"Lake Balkhash","featurecla":"Lake","scalerank":0,"min_zoom":1},"geometry":{"type":"Polygon","coordinates":[[[74.0,45.0172],[74.0,46.3609],[73.9747,46.3413],[73.9824,46.3227],[73.9406,46.2995],[73.9609,46.2591],[73.9971,46.265],[74.0,46.1896],[73.8791,46.2047],[73.8476,46.1923],[73.8311,46.1623],[73.7693,46.2309],[73.7392,46.2073],[73.7351,46.1835],[73.6686,46.1794],[73.6556,46.1476],[73.6327,46.1387],[73.6598,46.1152],[73.6374,46.0916],[73.6406,46.0731],[73.7272,46.0266],[73.7381,45.9857],[73.756,45.978],[73.701,45.978],[73.7075,45.998],[73.6536,45.9816],[73.6727,45.9733],[73.6389,45.9439],[73.6459,45.9086],[73.6047,45.8956],[73.6121,45.875],[73.5935,45.8676],[73.5741,45.8099],[73.5226,45.8135],[73.4879,45.847],[73.4231,45.8017],[73.4664,45.7723],[73.5594,45.7502],[73.5208,45.7322],[73.5061,45.6754],[73.4372,45.6763],[73.4252,45.6074],[73.4366,45.5883],[73.4711,45.5665],[73.5379,45.5571],[73.6356,45.5014],[73.6974,45.3967],[73.7625,45.361],[73.7284,45.3543],[73.8243,45.3066],[73.8131,45.2813],[73.8961,45.2206],[74.0,45.2177],[74.0,45.2017],[73.9815,45.1965],[74.0,45.1895],[74.0,45.1381],[73.9883,45.1314],[74.0,45.0323],[73.9883,45.0246],[74.0,45.0172]]]}},{"type":"Feature","properties":{"name":"Lake Chad","featurecla":"Lake","scalerank":1,"min_zoom":1.7},"geometry":{"type":"Polygon","coordinates":[[[14.7337,13.0808],[14.7187,13.1279],[14.671,13.1644],[14.6674,13.2056],[14.6097,13.2174],[14.6077,13.1929],[14.5367,13.2536],[14.4643,13.2306],[14.469,13.2144],[14.4375,13.2235],[14.374,13.1938],[14.3563,13.1588],[14.3004,13.1726],[14.3713,13.1026],[14.3807,13.0637],[14.2789,13.1361],[14.3248,13.0572],[14.2739,13.0581],[14.2939,13.0195],[14.2474,12.9992],[14.2936,12.9468],[14.2733,12.9383],[14.288,12.9042],[14.2689,12.8883],[14.3104,12.885],[14.3186,12.8703],[14.3725,12.873],[14.4066,12.8821],[14.3984,12.9071],[14.4234,12.9309],[14.4487,12.9265],[14.462,12.9574],[14.4734,12.9371],[14.5091,12.978],[14.5509,12.986],[14.5715,12.9716],[14.5988,12.9963],[14.6371,12.973],[14.6813,12.9777],[14.6986,13.039],[14.7681,13.0699],[14.7337,13.0808]]]}},{"type":"Feature","properties":{"name":"Lake Tana","featurecla":"Lake","scalerank":1,"min_zoom":1.7},"geometry":{"type":"Polygon","coordinates":[[[37.302,11.7402],[37.3441,11.7046],[37.299,11.6976],[37.2937,11.664],[37.3267,11.6322],[37.3868,11.6319],[37.4568,11.8103],[37.5057,11.8383],[37.4912,11.906],[37.5389,11.9201],[37.5737,11.981],[37.601,12.112],[37.4986,12.3039],[37.3947,12.2901],[37.3608,12.2689],[37.3267,12.2892],[37.2949,12.2648],[37.2758,12.2156],[37.251,12.2077],[37.176,12.2201],[37.1674,12.2589],[37.1374,12.2813],[37.0682,12.2421],[37.0153,12.1709],[36.9914,11.8854],[37.0262,11.8798],[37.0394,11.8412],[37.0697,11.8303],[37.0865,11.8035],[37.1018,11.8503],[37.1206,11.8583],[37.123,11.8259],[37.1486,11.8103],[37.2098,11.8303],[37.2722,11.8165],[37.2923,11.7988],[37.302,11.7402]]]}},{"type":"Feature","properties":{"name":"Lake Geneva","featurecla":"Lake","scalerank":4,"min_zoom":4},"geometry":{"type":"Polygon","coordinates":[[[6.8712,46.4587],[6.5977,46.5223],[6.5109,46.5176],[6.4191,46.4731],[6.3346,46.4614],[6.1765,46.3001],[6.1332,46.2047],[6.183,46.2388],[6.2948,46.3739],[6.3555,46.3716],[6.3837,46.348],[6.4994,46.4093],[6.6972,46.4231],[6.8677,46.4025],[6.9139,46.4043],[6.9354,46.4231],[6.8712,46.4587]]]}},{"type":"Feature","properties":{"name":"Bodensee","featurecla":"Lake","scalerank":5,"min_zoom":4.7},"geometry":{"type":"Polygon","coordinates":[[[9.7186,47.5467],[9.5375,47.5991],[9.4881,47.6538],[9.3224,47.6818],[9.2267,47.7248],[9.2108,47.7595],[9.0321,47.8207],[9.1616,47.7469],[9.2055,47.6815],[9.1828,47.6706],[9.2067,47.6474],[9.3712,47.5811],[9.398,47.544],[9.4946,47.4881],[9.5529,47.5122],[9.6697,47.4984],[9.6897,47.5199],[9.7445,47.5199],[9.7186,47.5467]]]}},{"type":"Feature","properties":{"name":"Lake Balaton","featurecla":"Lake","scalerank":5,"min_zoom":4.7},"geometry":{"type":"Polygon","coordinates":[[[17.8698,46.8638],[17.9196,46.8956],[18.1189,46.9438],[18.1686,47.0136],[18.1121,47.0469],[18.0467,47.0604],[17.9955,46.9992],[17.8651,46.9438],[17.8954,46.9203],[17.8928,46.8956],[17.8377,46.92],[17.4957,46.7863],[17.423,46.8005],[17.3453,46.7581],[17.2628,46.7678],[17.2478,46.7316],[17.2752,46.7166],[17.4745,46.7172],[17.5631,46.7646],[17.8698,46.8638]]]}},{"type":"Feature","properties":{"name":"Siletitengiz Kli","featurecla":"Lake","scalerank":5,"min_zoom":4.7},"geometry":{"type":"Polygon","coordinates":[[[73.426,53.0769],[73.3795,53.0996],[73.4122,53.1181],[73.4334,53.1111],[73.4075,53.174],[73.4128,53.2385],[73.4402,53.2965],[73.4358,53.341],[73.4054,53.3669],[73.2644,53.4022],[73.0443,53.396],[73.0142,53.3889],[72.9948,53.3642],[72.9536,53.358],[72.9536,53.3465],[72.9883,53.3518],[73.0089,53.3301],[72.9883,53.3377],[72.9315,53.2862],[72.9127,53.2891],[72.9221,53.2541],[72.9527,53.2588],[72.9748,53.242],[72.9845,53.293],[73.0395,53.3362],[73.0599,53.3362],[73.0908,53.2618],[73.2968,53.152],[73.2971,53.1281],[73.3763,53.0557],[73.4128,53.0563],[73.4325,53.0681],[73.426,53.0769]]]}},{"type":"Feature","properties":{"name":"Sea of Galilee","featurecla":"Lake","scalerank":5,"min_zoom":4.7},"geometry":{"type":"Polygon","coordinates":[[[35.6397,32.85],[35.6303,32.8826],[35.5917,32.898],[35.5237,32.852],[35.5172,32.8208],[35.577,32.7202],[35.5994,32.7178],[35.6341,32.7522],[35.6397,32.85]]]}},{"type":"Feature","properties":{"name":"Lake Sevan","featurecla":"Lake","scalerank":5,"min_zoom":4.7},"geometry":{"type":"Polygon","coordinates":[[[45.0387,40.4964],[45.0908,40.454],[45.1215,40.4496],[45.1285,40.3998],[45.1659,40.3863],[45.2071,40.3998],[45.2266,40.3719],[45.2207,40.2418],[45.2333,40.1997],[45.286,40.1476],[45.3805,40.1393],[45.4441,40.1661],[45.5086,40.1461],[45.563,40.1717],[45.6301,40.1708],[45.6616,40.2011],[45.6493,40.275],[45.5836,40.3454],[45.4909,40.3857],[45.4061,40.4681],[45.3578,40.4887],[45.3508,40.4478],[45.3031,40.4575],[45.2969,40.4793],[45.2218,40.5335],[45.0908,40.6021],[44.9781,40.6238],[44.9775,40.5906],[45.0125,40.5582],[44.9666,40.537],[44.9604,40.5196],[44.9937,40.4987],[45.0387,40.4964]]]}},{"type":"Feature","properties":{"name":"Lake Skadar","featurecla":"Lake","scalerank":6,"min_zoom":5},"geometry":{"type":"Polygon","coordinates":[[[19.4806,42.113],[19.4785,42.1413],[19.3658,42.2311],[19.4347,42.3388],[19.3796,42.3102],[19.3652,42.2802],[19.3175,42.2843],[19.3249,42.2637],[19.3449,42.2708],[19.3372,42.2552],[19.1809,42.2637],[19.0779,42.3058],[19.1059,42.2843],[19.1194,42.2434],[19.1059,42.2358],[19.1918,42.2234],[19.2083,42.1766],[19.2477,42.1439],[19.4238,42.0718],[19.4823,42.0653],[19.4806,42.113]]]}},{"type":"Feature","properties":{"featurecla":"Lake","scalerank":6,"min_zoom":5},"geometry":{"type":"Polygon","coordinates":[[[9.066,47.723],[8.9836,47.7525],[9.0048,47.7321],[8.9494,47.7463],[8.9429,47.7339],[9.0048,47.7042],[8.9147,47.6565],[8.8811,47.6565],[8.9447,47.6544],[9.0159,47.6792],[9.1275,47.6706],[9.066,47.723]]]}},{"type":"Feature","properties":{"featurecla":"Lake","scalerank":7,"min_zoom":5.7},"geometry":{"type":"Polygon","coordinates":[[[58.6086,51.8788],[58.6681,51.8041],[58.7349,51.7752],[58.634,51.7184],[58.6251,51.7034],[58.636,51.6949],[58.7985,51.7011],[58.8106,51.7169],[58.7953,51.7261],[58.7438,51.7328],[58.782,51.7593],[58.8977,51.772],[58.9207,51.7623],[58.9333,51.7337],[58.9575,51.7602],[59.0255,51.7732],[59.1043,51.7696],[59.1385,51.7849],[59.2003,51.7752],[59.185,51.7973],[59.2003,51.8161],[59.0773,51.7838],[59.0564,51.7991],[58.8471,51.8161],[58.8126,51.7991],[58.7829,51.8706],[58.7956,51.8927],[58.8297,51.8983],[58.8064,51.9177],[58.8106,51.9704],[58.7723,52.039],[58.8406,52.1703],[58.8441,52.1935],[58.825,52.2003],[58.7526,52.0384],[58.7823,51.9201],[58.7411,51.8703],[58.762,51.83],[58.747,51.8129],[58.7173,51.8176],[58.659,51.8435],[58.6401,51.8921],[58.6104,51.9018],[58.6086,51.8788]]]}},{"type":"Feature","properties":{"name":"Lake Débo","featurecla":"Lake","scalerank":7,"min_zoom":5.7},"geometry":{"type":"Polygon","coordinates":[[[-3.9954,15.3194],[-4.0812,15.3568],[-4.1158,15.3986],[-4.1373,15.3709],[-4.1976,15.4004],[-4.2372,15.4339],[-4.2462,15.4725],[-4.3039,15.5069],[-4.2667,15.4375],[-4.2708,15.3533],[-4.2228,15.3644],[-4.1736,15.3277],[-4.2524,15.275],[-4.2562,15.2647],[-4.2163,15.27],[-4.2222,15.2226],[-4.1779,15.2076],[-4.1439,15.3026],[-4.0886,15.2923],[-4.0584,15.2655],[-4.0412,15.2838],[-3.9795,15.2811],[-3.9954,15.3194]]]}},{"type":"Feature","properties":{"featurecla":"Lake","scalerank":7,"min_zoom":5.7},"geometry":{"type":"Polygon","coordinates":[[[61.9514,46.2594],[61.8781,46.2577],[61.8249,46.23],[61.7781,46.2309],[61.7513,46.1959],[61.7186,46.2132],[61.6415,46.1988],[61.6409,46.1717],[61.5611,46.1017],[61.6008,46.0342],[61.6712,45.9995],[61.6824,45.9524],[61.7307,46.0163],[61.7766,46.0219],[61.7951,46.0716],[61.741,46.0746],[61.7542,46.1099],[61.7427,46.119],[61.6541,46.1037],[61.7048,46.1261],[61.6482,46.1299],[61.6453,46.1473],[61.7875,46.1635],[61.8081,46.1405],[61.8437,46.1823],[61.9085,46.17],[61.9105,46.1929],[61.9408,46.2067],[61.9679,46.2459],[61.9679,46.2639],[61.9514,46.2594]]]}},{"type":"Feature","properties":{"featurecla":"Lake","scalerank":7,"min_zoom":5.7},"geometry":{"type":"Polygon","coordinates":[[[18.8904,49.9484],[18.8177,49.9387],[18.7897,49.9181],[18.8453,49.9252],[18.8654,49.9181],[18.8583,49.9045],[18.9413,49.9387],[18.8904,49.9484]]]}},{"type":"Feature","properties":{"featurecla":"Lake","scalerank":7,"min_zoom":5.7},"geometry":{"type":"Polygon","coordinates":[[[-5.2216,39.817],[-5.2694,39.7967],[-5.2981,39.8029],[-5.3636,39.8441],[-5.3751,39.8605],[-5.352,39.8717],[-5.3792,39.9065],[-5.4139,39.8929],[-5.3994,39.8776],[-5.4134,39.8605],[-5.4809,39.8555],[-5.6422,39.7981],[-5.8213,39.8002],[-5.9105,39.8246],[-5.9488,39.8508],[-5.9956,39.8517],[-5.8007,39.7761],[-5.7529,39.7967],[-5.6366,39.7828],[-5.5335,39.8202],[-5.4351,39.7958],[-5.4067,39.8158],[-5.4139,39.7967],[-5.4033,39.7937],[-5.3663,39.8102],[-5.2768,39.7828],[-5.2263,39.7981],[-5.2113,39.8096],[-5.2216,39.817]]]}},{"type":"Feature","properties":{"featurecla":"Lake","scalerank":7,"min_zoom":5.7},"geometry":{"type":"Polygon","coordinates":[[[30.4804,46.1561],[30.4212,46.1947],[30.4127,46.2544],[30.3394,46.2898],[30.3094,46.3748],[30.2946,46.3104],[30.2431,46.3419],[30.2408,46.3822],[30.2181,46.3963],[30.1286,46.3739],[30.1174,46.3578],[30.1089,46.3383],[30.1254,46.3051],[30.1922,46.2524],[30.3411,46.2017],[30.4312,46.0837],[30.4515,46.0837],[30.498,46.1249],[30.501,46.1432],[30.4804,46.1561]]]}},{"type":"Feature","properties":{"featurecla":"Lake","scalerank":7,"min_zoom":5.7},"geometry":{"type":"Polygon","coordinates":[[[31.4271,49.7706],[31.4412,49.7527],[31.4727,49.7609],[31.5265,49.7936],[31.5492,49.8289],[31.5907,49.8289],[31.5766,49.9449],[31.5265,49.9982],[31.5363,50.0143],[31.5233,50.0217],[31.4821,50.0008],[31.4406,50.0143],[31.4256,49.9257],[31.4432,49.8436],[31.4271,49.7706]]]}},{"type":"Feature","properties":{"featurecla":"Lake","scalerank":7,"min_zoom":5.7},"geometry":{"type":"Polygon","coordinates":[[[20.8188,41.1125],[20.7702,41.1287],[20.7596,41.1534],[20.7225,41.1746],[20.6545,41.1746],[20.6333,41.0816],[20.6545,41.0677],[20.6333,41.0162],[20.6595,40.9103],[20.7137,40.9061],[20.7914,40.9344],[20.8188,41.1125]]]}},{"type":"Feature","properties":{"name":"Lago di Como","featurecla":"Lake","scalerank":7,"min_zoom":5.7},"geometry":{"type":"Polygon","coordinates":[[[8.8461,46.1691],[8.7952,46.1644],[8.7107,46.1105],[8.7004,46.0811],[8.7136,46.0387],[8.6156,45.9551],[8.5603,45.9321],[8.4929,45.9377],[8.5211,45.8977],[8.5664,45.87],[8.567,45.8185],[8.5488,45.7911],[8.5941,45.7299],[8.6206,45.7255],[8.5703,45.7837],[8.6215,45.827],[8.6079,45.9086],[8.7381,45.9945],[8.7534,46.0175],[8.746,46.0925],[8.8461,46.1691]]]}},{"type":"Feature","properties":{"name":"Lago di Garda","featurecla":"Lake","scalerank":7,"min_zoom":5.7},"geometry":{"type":"Polygon","coordinates":[[[10.8551,45.8956],[10.7294,45.7302],[10.6029,45.6422],[10.5254,45.608],[10.5678,45.5986],[10.5737,45.5871],[10.5555,45.5812],[10.5737,45.5491],[10.5116,45.4982],[10.5831,45.472],[10.6084,45.5044],[10.6305,45.467],[10.7009,45.4493],[10.7312,45.5182],[10.7109,45.5809],[10.6897,45.5759],[10.7109,45.6522],[10.8628,45.8376],[10.8678,45.8797],[10.8551,45.8956]]]}},{"type":"Feature","properties":{"name":"Lake Adobed","featurecla":"Lake","scalerank":8,"min_zoom":6},"geometry":{"type":"Polygon","coordinates":[[[41.5944,11.4008],[41.5667,11.3846],[41.5738,11.3667],[41.6176,11.3793],[41.5944,11.4008]]]}},{"type":"Feature","properties":{"name":"Koka Reservoir","featurecla":"Lake","scalerank":8,"min_zoom":6},"geometry":{"type":"Polygon","coordinates":[[[39.1103,8.4763],[39.0793,8.4648],[39.0449,8.408],[38.9984,8.3892],[38.9866,8.3409],[39.0667,8.3094],[39.0799,8.3215],[39.14,8.4581],[39.1103,8.4763]]]}},{"type":"Feature","properties":{"name":"Lake Gemeri","featurecla":"Lake","scalerank":8,"min_zoom":6},"geometry":{"type":"Polygon","coordinates":[[[41.703,11.5233],[41.6745,11.5866],[41.6306,11.6075],[41.62,11.5795],[41.6438,11.5295],[41.6904,11.4992],[41.703,11.5233]]]}},{"type":"Feature","properties":{"featurecla":"Lake","scalerank":8,"min_zoom":6},"geometry":{"type":"Polygon","coordinates":[[[27.6451,49.476],[27.6065,49.4174],[27.4726,49.4174],[27.613,49.39],[27.6542,49.4627],[27.698,49.4656],[27.6866,49.4786],[27.6451,49.476]]]}},{"type":"Feature","properties":{"name":"Lough Derg","featurecla":"Lake","scalerank":8,"min_zoom":6},"geometry":{"type":"Polygon","coordinates":[[[-8.1682,53.0751],[-8.278,53.0722],[-8.2934,53.0272],[-8.3524,52.9945],[-8.3339,52.943],[-8.4976,52.8994],[-8.436,52.8929],[-8.4294,52.875],[-8.4634,52.8441],[-8.4491,52.8167],[-8.3666,52.8994],[-8.2921,52.8994],[-8.3195,52.9191],[-8.2872,52.9262],[-8.2785,52.9336],[-8.2921,52.9465],[-8.2709,52.9489],[-8.2847,52.9951],[-8.2375,53.0428],[-8.1682,53.0751]]]}},{"type":"Feature","properties":{"featurecla":"Lake","scalerank":8,"min_zoom":6},"geometry":{"type":"Polygon","coordinates":[[[-7.9752,53.8537],[-7.9492,53.8373],[-7.9359,53.8514],[-7.9421,53.8676],[-8.0061,53.8799],[-7.9752,53.8537]]]}},{"type":"Feature","properties":{"name":"Lough Ree","featurecla":"Lake","scalerank":8,"min_zoom":6},"geometry":{"type":"Polygon","coordinates":[[[-7.8666,53.5608],[-7.939,53.5497],[-7.9768,53.5629],[-7.9721,53.5809],[-8.0111,53.633],[-8.0042,53.6665],[-8.018,53.6727],[-8.0592,53.6391],[-8.0382,53.5982],[-8.0592,53.577],[-8.0314,53.5703],[-8.0257,53.552],[-8.0042,53.5629],[-7.983,53.5361],[-8.0042,53.5293],[-7.9923,53.4758],[-7.9768,53.4884],[-7.9776,53.4613],[-7.8948,53.4611],[-7.9222,53.4678],[-7.9085,53.4884],[-7.929,53.4952],[-7.9059,53.5082],[-7.9037,53.527],[-7.8396,53.5497],[-7.8666,53.5608]]]}},{"type":"Feature","properties":{"featurecla":"Lake","scalerank":8,"min_zoom":6},"geometry":{"type":"Polygon","coordinates":[[[73.8479,33.1626],[73.8108,33.1808],[73.8175,33.205],[73.701,33.2315],[73.7416,33.2706],[73.7487,33.321],[73.6942,33.3068],[73.6765,33.2312],[73.6589,33.2215],[73.6047,33.2727],[73.6144,33.2968],[73.598,33.321],[73.598,33.2459],[73.5788,33.2282],[73.6121,33.2315],[73.6468,33.1941],[73.6389,33.1496],[73.6501,33.1323],[73.7145,33.1558],[73.7042,33.2097],[73.8175,33.1496],[73.8231,33.1317],[73.8641,33.1231],[73.8658,33.1496],[73.8479,33.1626]]]}},{"type":"Feature","properties":{"featurecla":"Lake","scalerank":8,"min_zoom":6},"geometry":{"type":"Polygon","coordinates":[[[-5.0956,6.3189],[-5.1047,6.3116],[-5.0919,6.2942],[-5.1056,6.2868],[-5.0918,6.2571],[-5.1124,6.2392],[-5.1294,6.2668],[-5.1396,6.2589],[-5.1598,6.2795],[-5.2013,6.3666],[-5.2148,6.369],[-5.1949,6.3004],[-5.0951,6.2],[-5.0782,6.2147],[-5.0707,6.2974],[-5.0956,6.3189]]]}},{"type":"Feature","properties":{"featurecla":"Lake","scalerank":8,"min_zoom":6},"geometry":{"type":"Polygon","coordinates":[[[2.5467,6.4384],[2.5084,6.472],[2.446,6.4817],[2.3883,6.4549],[2.3777,6.3955],[2.4802,6.3858],[2.5576,6.4105],[2.5467,6.4384]]]}},{"type":"Feature","properties":{"name":"Müritz","featurecla":"Lake","scalerank":8,"min_zoom":6},"geometry":{"type":"Polygon","coordinates":[[[12.767,53.4369],[12.6646,53.4905],[12.6978,53.5087],[12.6658,53.5149],[12.5816,53.4269],[12.6287,53.4251],[12.6348,53.3972],[12.6569,53.4128],[12.6834,53.3998],[12.6978,53.3683],[12.6917,53.3377],[12.7073,53.3301],[12.7176,53.3445],[12.6978,53.3377],[12.7067,53.3477],[12.7841,53.3889],[12.767,53.4369]]]}},{"type":"Feature","properties":{"name":"Schweriner See","featurecla":"Lake","scalerank":8,"min_zoom":6},"geometry":{"type":"Polygon","coordinates":[[[11.4527,53.7569],[11.4277,53.7272],[11.4377,53.6871],[11.4577,53.6871],[11.4544,53.6527],[11.4241,53.6256],[11.5057,53.6082],[11.5121,53.6182],[11.4577,53.7007],[11.4877,53.6989],[11.4918,53.7695],[11.5339,53.7902],[11.4527,53.7569]]]}},{"type":"Feature","properties":{"name":"Lago di Bracciano","featurecla":"Lake","scalerank":9,"min_zoom":7},"geometry":{"type":"Polygon","coordinates":[[[11.9769,42.6399],[11.9449,42.6535],[11.8939,42.6426],[11.8595,42.5928],[11.941,42.5375],[11.9852,42.5443],[11.9996,42.6202],[11.9769,42.6399]]]}},{"type":"Feature","properties":{"featurecla":"Lake","scalerank":9,"min_zoom":7},"geometry":{"type":"Polygon","coordinates":[[[21.0242,40.8449],[21.0625,40.8387],[21.079,40.8169],[21.1199,40.862],[21.079,40.9685],[21.0422,41.0074],[20.9648,41.0159],[20.9065,40.9691],[20.9174,40.9432],[20.9845,40.9105],[20.9506,40.8849],[20.9412,40.9064],[20.9268,40.8917],[20.9692,40.8584],[20.9406,40.8414],[20.9412,40.8169],[20.9077,40.776],[20.9206,40.7625],[21.0089,40.8166],[21.0242,40.8449]]]}},{"type":"Feature","properties":{"featurecla":"Lake","scalerank":9,"min_zoom":7},"geometry":{"type":"Polygon","coordinates":[[[21.1164,40.7987],[21.0975,40.8111],[21.0543,40.784],[21.0852,40.7554],[21.0778,40.7325],[20.9963,40.6804],[21.0993,40.7251],[21.1302,40.7625],[21.1164,40.7987]]]}},{"type":"Feature","properties":{"featurecla":"Lake","scalerank":9,"min_zoom":7},"geometry":{"type":"Polygon","coordinates":[[[14.3875,51.6463],[14.3772,51.5966],[14.4175,51.6516],[14.3993,51.6672],[14.3875,51.6463]]]}},{"type":"Feature","properties":{"name":"Lauwerszee","featurecla":"Lake","scalerank":9,"min_zoom":7},"geometry":{"type":"Polygon","coordinates":[[[6.2189,53.3636],[6.1956,53.3707],[6.1948,53.3928],[6.2289,53.3928],[6.1847,53.4069],[6.1677,53.4013],[6.1468,53.3548],[6.2186,53.3401],[6.263,53.3518],[6.2189,53.3636]]]}},{"type":"Feature","properties":{"featurecla":"Lake","scalerank":9,"min_zoom":7},"geometry":{"type":"Polygon","coordinates":[[[13.1912,52.5153],[13.1768,52.467],[13.1026,52.4325],[13.1774,52.432],[13.2192,52.5076],[13.1912,52.5153]]]}},{"type":"Feature","properties":{"featurecla":"Lake","scalerank":9,"min_zoom":7},"geometry":{"type":"Polygon","coordinates":[[[12.8436,53.2211],[12.8076,53.2147],[12.8076,53.2353],[12.7935,53.2244],[12.8,53.2073],[12.8565,53.2147],[12.8436,53.2211]]]}},{"type":"Feature","properties":{"featurecla":"Lake","scalerank":9,"min_zoom":7},"geometry":{"type":"Polygon","coordinates":[[[12.4897,52.4149],[12.3899,52.399],[12.4406,52.3887],[12.4309,52.371],[12.4582,52.3643],[12.4909,52.3796],[12.4897,52.4149]]]}},{"type":"Feature","properties":{"featurecla":"Lake","scalerank":9,"min_zoom":7},"geometry":{"type":"Polygon","coordinates":[[[12.9407,52.374],[12.9657,52.3643],[12.9516,52.4058],[12.8901,52.4325],[12.9407,52.374]]]}},{"type":"Feature","properties":{"featurecla":"Lake","scalerank":9,"min_zoom":7},"geometry":{"type":"Polygon","coordinates":[[[12.9807,52.3531],[12.9592,52.3598],[12.9313,52.3166],[12.9928,52.3507],[12.9807,52.3531]]]}},{"type":"Feature","properties":{"featurecla":"Lake","scalerank":9,"min_zoom":7},"geometry":{"type":"Polygon","coordinates":[[[13.681,52.4458],[13.6454,52.454],[13.6233,52.4393],[13.6513,52.4323],[13.681,52.4458]]]}},{"type":"Feature","properties":{"featurecla":"Lake","scalerank":9,"min_zoom":7},"geometry":{"type":"Polygon","coordinates":[[[14.2147,52.0887],[14.2126,52.1117],[14.185,52.1043],[14.1976,52.074],[14.1888,52.0148],[14.1923,52.0354],[14.2229,52.0369],[14.2191,52.0696],[14.2465,52.0837],[14.2147,52.0887]]]}},{"type":"Feature","properties":{"name":"Jezioro Dąbie","featurecla":"Lake","scalerank":9,"min_zoom":7},"geometry":{"type":"Polygon","coordinates":[[[14.7042,53.4675],[14.7057,53.502],[14.6857,53.5293],[14.6527,53.5346],[14.6468,53.4664],[14.6097,53.4566],[14.6077,53.4431],[14.6374,53.4337],[14.6306,53.4128],[14.663,53.4084],[14.6527,53.4275],[14.7057,53.4399],[14.7042,53.4675]]]}},{"type":"Feature","properties":{"name":"Ozero Teke","featurecla":"Lake","scalerank":9,"min_zoom":7},"geometry":{"type":"Polygon","coordinates":[[[73.0604,53.8367],[72.9848,53.9194],[72.9389,53.9338],[72.865,53.877],[72.822,53.8632],[72.8512,53.8105],[72.981,53.7622],[73.0275,53.7592],[73.0634,53.7831],[73.084,53.8172],[73.0604,53.8367]]]}},{"type":"Feature","properties":{"name":"Qyzylqaq Kli","featurecla":"Lake","scalerank":9,"min_zoom":7},"geometry":{"type":"Polygon","coordinates":[[[73.8823,53.4752],[73.7469,53.494],[73.6642,53.4425],[73.6389,53.4063],[73.7634,53.3695],[73.8635,53.3722],[73.8894,53.391],[73.9017,53.4543],[73.8823,53.4752]]]}},{"type":"Feature","properties":{"name":"Qiyakty Kli","featurecla":"Lake","scalerank":9,"min_zoom":7},"geometry":{"type":"Polygon","coordinates":[[[69.2902,50.047],[69.2225,50.0376],[69.1551,50.05],[69.1854,49.9864],[69.2393,49.9781],[69.3058,50.0164],[69.3029,50.045],[69.2902,50.047]]]}},{"type":"Feature","properties":{"name":"Kerey Kli","featurecla":"Lake","scalerank":9,"min_zoom":7},"geometry":{"type":"Polygon","coordinates":[[[68.7395,50.1789],[68.6476,50.1571],[68.6303,50.1247],[68.6989,50.0974],[68.7253,50.1032],[68.7592,50.1418],[68.7395,50.1789]]]}},{"type":"Feature","properties":{"name":"Qozhakl","featurecla":"Lake","scalerank":9,"min_zoom":7},"geometry":{"type":"Polygon","coordinates":[[[69.166,50.9127],[69.1745,50.891],[69.2046,50.916],[69.2437,50.8983],[69.2734,50.908],[69.2811,50.9319],[69.2293,50.9595],[69.1996,50.9442],[69.0959,50.9666],[69.1086,50.9104],[69.166,50.9127]]]}},{"type":"Feature","properties":{"name":"Yke Lake","featurecla":"Lake","scalerank":9,"min_zoom":7},"geometry":{"type":"Polygon","coordinates":[[[61.5408,51.0005],[61.5149,51.0208],[61.4908,51.0187],[61.5243,50.9595],[61.4999,50.9395],[61.5284,50.9319],[61.6291,50.951],[61.6329,51.0008],[61.5408,51.0005]]]}},{"type":"Feature","properties":{"name":"Saryqopa Kli","featurecla":"Lake","scalerank":9,"min_zoom":7},"geometry":{"type":"Polygon","coordinates":[[[64.2319,50.3502],[64.206,50.3367],[64.2169,50.4011],[64.2013,50.4435],[64.1615,50.4382],[64.1724,50.4176],[64.155,50.3823],[64.1347,50.3838],[64.1512,50.412],[64.1415,50.4382],[64.0659,50.4114],[64.0529,50.3685],[64.0932,50.3705],[64.075,50.3505],[64.0979,50.3243],[64.1,50.2813],[64.0794,50.2439],[64.1689,50.3155],[64.1477,50.2607],[64.1,50.2198],[64.1274,50.2163],[64.1536,50.2342],[64.2122,50.3134],[64.2598,50.3508],[64.2445,50.3638],[64.2319,50.3502]]]}},{"type":"Feature","properties":{"featurecla":"Lake","scalerank":9,"min_zoom":7},"geometry":{"type":"Polygon","coordinates":[[[64.1827,50.2125],[64.1409,50.1989],[64.0544,50.1274],[64.0706,50.0915],[64.1415,50.0826],[64.0385,50.0211],[64.0932,50.0273],[64.0885,50.0052],[64.1082,50.0035],[64.1553,50.0344],[64.1751,50.1174],[64.1071,50.0962],[64.1827,50.1789],[64.1698,50.1945],[64.1827,50.2125]]]}},{"type":"Feature","properties":{"name":"Zharman Kli","featurecla":"Lake","scalerank":9,"min_zoom":7},"geometry":{"type":"Polygon","coordinates":[[[64.5042,51.6016],[64.4768,51.6687],[64.4853,51.6775],[64.5383,51.6593],[64.5383,51.7199],[64.4806,51.7337],[64.4359,51.7002],[64.3958,51.6316],[64.3864,51.5759],[64.4924,51.5548],[64.5351,51.5827],[64.5451,51.6107],[64.5042,51.6016]]]}},{"type":"Feature","properties":{"name":"Iken Aqsuat Kli","featurecla":"Lake","scalerank":9,"min_zoom":7},"geometry":{"type":"Polygon","coordinates":[[[64.5283,51.4108],[64.5339,51.5003],[64.5042,51.513],[64.3885,51.4361],[64.3938,51.3937],[64.4983,51.3369],[64.5183,51.3431],[64.5418,51.3823],[64.5283,51.4108]]]}},{"type":"Feature","properties":{"name":"Koybaghar Kli","featurecla":"Lake","scalerank":9,"min_zoom":7},"geometry":{"type":"Polygon","coordinates":[[[65.6495,52.623],[65.6363,52.641],[65.6554,52.6524],[65.6666,52.6998],[65.6195,52.7095],[65.5415,52.6201],[65.5433,52.5959],[65.5804,52.5703],[65.6313,52.5615],[65.6684,52.6071],[65.6495,52.623]]]}},{"type":"Feature","properties":{"name":"Imantau Kli","featurecla":"Lake","scalerank":9,"min_zoom":7},"geometry":{"type":"Polygon","coordinates":[[[68.325,52.9754],[68.3597,52.9851],[68.3403,53.0245],[68.2864,53.0578],[68.2052,53.064],[68.199,53.028],[68.325,52.9754]]]}},{"type":"Feature","properties":{"name":"Qalybek Kli","featurecla":"Lake","scalerank":9,"min_zoom":7},"geometry":{"type":"Polygon","coordinates":[[[70.6999,53.9538],[70.6187,53.9473],[70.5722,53.8529],[70.5763,53.8328],[70.6263,53.8143],[70.6752,53.8414],[70.6955,53.9314],[70.7341,53.9409],[70.6999,53.9538]]]}},{"type":"Feature","properties":{"featurecla":"Lake","scalerank":9,"min_zoom":7},"geometry":{"type":"Polygon","coordinates":[[[19.6431,53.7484],[19.6198,53.7955],[19.5863,53.8008],[19.5786,53.7763],[19.5498,53.7922],[19.5577,53.7622],[19.6228,53.7016],[19.5433,53.6182],[19.5659,53.6197],[19.6363,53.6857],[19.6404,53.7174],[19.681,53.7551],[19.6431,53.7484]]]}},{"type":"Feature","properties":{"featurecla":"Lake","scalerank":9,"min_zoom":7},"geometry":{"type":"Polygon","coordinates":[[[21.5694,53.8214],[21.552,53.8576],[21.5029,53.8991],[21.5376,53.9303],[21.4802,53.9055],[21.4793,53.8891],[21.5654,53.8018],[21.5694,53.8214]]]}},{"type":"Feature","properties":{"featurecla":"Lake","scalerank":9,"min_zoom":7},"geometry":{"type":"Polygon","coordinates":[[[21.8261,53.7698],[21.849,53.7675],[21.8658,53.799],[21.6262,53.7902],[21.6406,53.7763],[21.5654,53.8018],[21.5997,53.7695],[21.5682,53.7483],[21.5582,53.6801],[21.5673,53.6742],[21.582,53.7378],[21.615,53.7613],[21.638,53.7342],[21.6132,53.7007],[21.6748,53.7207],[21.7437,53.7007],[21.7593,53.6762],[21.7855,53.6801],[21.7292,53.7416],[21.7884,53.7354],[21.8261,53.7698]]]}},{"type":"Feature","properties":{"featurecla":"Lake","scalerank":9,"min_zoom":7},"geometry":{"type":"Polygon","coordinates":[[[21.95,53.6718],[21.9503,53.6871],[21.9338,53.6912],[21.8561,53.6883],[21.8405,53.6665],[21.8876,53.6665],[21.8112,53.6505],[21.8162,53.6401],[21.9703,53.6665],[21.95,53.6718]]]}},{"type":"Feature","properties":{"featurecla":"Lake","scalerank":9,"min_zoom":7},"geometry":{"type":"Polygon","coordinates":[[[21.8118,54.0],[21.7508,54.0],[21.7643,53.9707],[21.6634,53.9008],[21.668,53.8915],[21.8193,53.9891],[21.8118,54.0]]]}},{"type":"Feature","properties":{"featurecla":"Lake","scalerank":9,"min_zoom":7},"geometry":{"type":"Polygon","coordinates":[[[46.7908,49.1686],[46.7219,49.2193],[46.6736,49.1981],[46.6292,49.2057],[46.5706,49.1572],[46.5721,49.1268],[46.6736,49.0883],[46.7525,49.0956],[46.804,49.1368],[46.7908,49.1686]]]}},{"type":"Feature","properties":{"featurecla":"Lake","scalerank":9,"min_zoom":7},"geometry":{"type":"Polygon","coordinates":[[[46.9574,48.2034],[46.9239,48.2482],[46.8544,48.2641],[46.8585,48.2052],[46.8874,48.1743],[46.9527,48.1516],[46.9683,48.171],[46.9574,48.2034]]]}},{"type":"Feature","properties":{"featurecla":"Lake","scalerank":9,"min_zoom":7},"geometry":{"type":"Polygon","coordinates":[[[48.4913,49.0126],[48.4431,49.0217],[48.3913,48.9944],[48.3654,49.0076],[48.2994,48.9917],[48.255,49.02],[48.2564,49.0474],[48.2732,49.0653],[48.3456,49.0338],[48.3595,49.0412],[48.32,49.0921],[48.2194,49.123],[48.1849,49.1095],[48.1293,49.1142],[48.1131,49.0921],[48.1746,49.0138],[48.2123,48.9988],[48.2358,48.9655],[48.3662,48.9723],[48.398,48.9611],[48.4899,48.9791],[48.4687,49.0003],[48.4913,49.0126]]]}},{"type":"Feature","properties":{"featurecla":"Lake","scalerank":9,"min_zoom":7},"geometry":{"type":"Polygon","coordinates":[[[50.2643,48.7742],[50.093,48.8113],[50.1324,48.8395],[50.2034,48.8213],[50.2098,48.8378],[50.2575,48.8493],[50.1413,48.8699],[50.1566,48.8822],[50.148,48.8899],[50.0418,48.8784],[50.0235,48.9093],[49.8746,48.9314],[50.0132,48.8557],[49.9484,48.841],[49.8478,48.8528],[49.9217,48.8213],[49.8952,48.801],[50.0468,48.7939],[50.1083,48.7712],[50.2042,48.7657],[50.2543,48.7188],[50.2814,48.7583],[50.2643,48.7742]]]}},{"type":"Feature","properties":{"featurecla":"Lake","scalerank":9,"min_zoom":7},"geometry":{"type":"Polygon","coordinates":[[[51.757,50.6101],[51.6967,50.6319],[51.6658,50.624],[51.6037,50.5928],[51.5833,50.5348],[51.6366,50.4777],[51.7441,50.4736],[51.7853,50.5445],[51.757,50.6101]]]}},{"type":"Feature","properties":{"featurecla":"Lake","scalerank":9,"min_zoom":7},"geometry":{"type":"Polygon","coordinates":[[[52.4953,49.4589],[52.341,49.5066],[52.3169,49.5272],[52.2933,49.5113],[52.2995,49.4863],[52.2807,49.4757],[52.3207,49.4309],[52.3431,49.4551],[52.4664,49.3912],[52.4894,49.4035],[52.4847,49.4247],[52.5091,49.4177],[52.4953,49.4589]]]}},{"type":"Feature","properties":{"featurecla":"Lake","scalerank":9,"min_zoom":7},"geometry":{"type":"Polygon","coordinates":[[[60.8791,50.8056],[60.824,50.7815],[60.8122,50.7423],[60.8387,50.7135],[60.8923,50.7105],[60.945,50.7338],[60.9688,50.7847],[60.94,50.8088],[60.8791,50.8056]]]}},{"type":"Feature","properties":{"name":"Khashm el Girba Dam","featurecla":"Reservoir","scalerank":8,"min_zoom":6},"geometry":{"type":"Polygon","coordinates":[[[35.947,14.7725],[35.95,14.8007],[35.9152,14.8523],[35.9017,14.9356],[35.8734,14.8523],[35.9258,14.7775],[35.8805,14.668],[35.8952,14.6197],[35.947,14.7725]]]}},{"type":"Feature","properties":{"name":"Mingevir Reservoir","featurecla":"Reservoir","scalerank":7,"min_zoom":5.7},"geometry":{"type":"Polygon","coordinates":[[[46.9412,40.8314],[46.9992,40.776],[47.0852,40.7978],[47.1596,40.7731],[47.1549,40.7966],[47.1261,40.8178],[46.9683,40.8584],[46.8988,40.9044],[46.7216,40.9638],[46.658,41.018],[46.6463,41.0574],[46.6227,41.0654],[46.5506,41.043],[46.4408,41.0504],[46.5235,40.9753],[46.4864,40.9397],[46.3702,40.9247],[46.3378,40.8997],[46.3855,40.8858],[46.6174,40.9067],[46.9412,40.8314]]]}},{"type":"Feature","properties":{"name":"Lake Habbaniyah","featurecla":"Reservoir","scalerank":6,"min_zoom":5},"geometry":{"type":"Polygon","coordinates":[[[43.4465,33.2521],[43.4289,33.2011],[43.4866,33.1891],[43.5649,33.2256],[43.597,33.293],[43.5702,33.3374],[43.5292,33.3557],[43.5113,33.3271],[43.4819,33.3295],[43.4339,33.3675],[43.4256,33.4166],[43.3709,33.4446],[43.3567,33.3757],[43.2952,33.3489],[43.2873,33.3215],[43.3938,33.2591],[43.4465,33.2521]]]}},{"type":"Feature","properties":{"name":"Buhayrat ath Tharthar","featurecla":"Reservoir","scalerank":3,"min_zoom":3},"geometry":{"type":"Polygon","coordinates":[[[43.2999,33.7228],[43.3088,33.7325],[43.4418,33.693],[43.4665,33.7045],[43.4945,33.7766],[43.4695,33.8017],[43.4727,33.8479],[43.5148,33.8479],[43.453,33.8758],[43.5075,33.8758],[43.5033,33.9244],[43.4465,33.9653],[43.4392,34.0124],[43.4124,34.036],[43.3635,34.0124],[43.3573,34.0416],[43.3294,34.0472],[43.3226,34.0948],[43.2952,34.0675],[43.2952,34.1019],[43.2196,34.1434],[43.1689,34.2391],[43.1451,34.2526],[43.1519,34.3141],[43.1148,34.3459],[43.1101,34.308],[43.0865,34.3489],[43.0803,34.295],[43.0512,34.2535],[43.0753,34.1767],[43.0677,34.0854],[43.0898,34.0751],[43.083,34.0118],[43.0692,33.9995],[43.0886,33.973],[43.0783,33.9468],[43.1369,33.8614],[43.2078,33.7949],[43.2007,33.7816],[43.2228,33.7516],[43.2611,33.7183],[43.2746,33.7325],[43.2999,33.7228]]]}},{"type":"Feature","properties":{"name":"Saksak Dagi","featurecla":"Reservoir","scalerank":7,"min_zoom":5.7},"geometry":{"type":"Polygon","coordinates":[[[38.3808,38.5103],[38.4453,38.4762],[38.7011,38.4023],[38.8056,38.4252],[38.8895,38.3537],[38.9239,38.3434],[38.9013,38.2886],[38.9395,38.3107],[39.0264,38.3204],[39.0735,38.3481],[38.9654,38.3443],[38.8798,38.3881],[38.8412,38.4656],[38.7605,38.4411],[38.6705,38.4467],[38.3767,38.5542],[38.369,38.6018],[38.4002,38.6528],[38.4785,38.6946],[38.4883,38.714],[38.4715,38.7408],[38.4473,38.7066],[38.3776,38.6684],[38.3361,38.598],[38.3808,38.5103]]]}},{"type":"Feature","properties":{"featurecla":"Reservoir","scalerank":4,"min_zoom":4},"geometry":{"type":"Polygon","coordinates":[[[33.5365,49.0023],[33.5683,48.9708],[33.6657,48.9308],[33.704,48.8984],[33.7293,48.9152],[33.9247,48.844],[33.9721,48.786],[34.0148,48.8004],[34.0678,48.7727],[34.192,48.7492],[34.2418,48.7062],[34.2794,48.7021],[34.2971,48.6659],[34.3651,48.6559],[34.3651,48.6126],[34.3828,48.5973],[34.4366,48.5985],[34.474,48.5808],[34.469,48.5484],[34.4911,48.5319],[34.5226,48.5249],[34.5703,48.5622],[34.5606,48.5937],[34.4687,48.6603],[34.2677,48.7565],[34.2441,48.8331],[34.1814,48.8454],[34.2191,48.8613],[34.1761,48.8634],[34.1137,48.8369],[34.1399,48.9164],[34.1237,48.9305],[34.0987,48.8816],[33.996,48.8654],[33.8603,48.9293],[33.7952,48.937],[33.5856,49.0082],[33.5365,49.0023]]]}},{"type":"Feature","properties":{"name":"Kiev Reservoir","featurecla":"Reservoir","scalerank":7,"min_zoom":5.7},"geometry":{"type":"Polygon","coordinates":[[[30.4306,50.8636],[30.3835,50.7806],[30.3788,50.727],[30.4103,50.6637],[30.5145,50.5966],[30.5269,50.6128],[30.5057,50.654],[30.5095,50.6846],[30.5699,50.8636],[30.5587,51.0008],[30.5961,51.0729],[30.5822,51.1017],[30.5622,51.097],[30.5905,51.2204],[30.5493,51.1992],[30.5289,51.2198],[30.4845,51.2042],[30.4542,51.1612],[30.4874,51.14],[30.4842,51.1206],[30.4274,51.1141],[30.4047,51.0691],[30.3712,51.0764],[30.3591,51.049],[30.32,51.0552],[30.254,51.034],[30.4121,51.0122],[30.4462,50.9666],[30.4306,50.8636]]]}},{"type":"Feature","properties":{"name":"M'Bakaou Reservoir","featurecla":"Reservoir","scalerank":8,"min_zoom":6},"geometry":{"type":"Polygon","coordinates":[[[12.7223,6.5223],[12.7223,6.5332],[12.6867,6.5294],[12.6887,6.5],[12.6502,6.4944],[12.6502,6.4832],[12.611,6.5],[12.6334,6.4555],[12.6222,6.4555],[12.6902,6.4429],[12.7555,6.3999],[12.7508,6.3793],[12.7723,6.3445],[12.8332,6.2945],[12.8718,6.3213],[12.8889,6.2889],[12.9113,6.311],[12.9389,6.2833],[12.9628,6.3169],[13.0013,6.3181],[12.9666,6.3554],[12.9831,6.3601],[12.9722,6.3722],[13.0166,6.439],[12.9445,6.4278],[12.9277,6.3222],[12.8777,6.3834],[12.8536,6.3875],[12.8553,6.4223],[12.8332,6.4055],[12.8332,6.4278],[12.802,6.4084],[12.7776,6.4278],[12.7956,6.4511],[12.8621,6.467],[12.8721,6.4832],[12.8112,6.4723],[12.8056,6.5],[12.7844,6.4723],[12.7223,6.5223]]]}},{"type":"Feature","properties":{"name":"Saratov Reservoir","featurecla":"Reservoir","scalerank":7,"min_zoom":5.7},"geometry":{"type":"Polygon","coordinates":[[[48.4375,53.1096],[48.4275,53.084],[48.4987,52.9536],[48.3695,52.8417],[48.3368,52.7796],[48.3374,52.719],[48.2594,52.6981],[48.212,52.6377],[48.1193,52.5674],[48.1054,52.5441],[48.1199,52.4543],[48.109,52.4178],[48.0675,52.356],[47.9591,52.2495],[47.8746,52.2074],[47.781,52.1208],[47.7566,52.0893],[47.7899,52.0563],[47.9197,52.0772],[47.9665,52.117],[47.9886,52.1723],[48.0622,52.2309],[48.1408,52.2286],[48.1687,52.2006],[48.2738,52.1853],[48.4604,52.2038],[48.4516,52.218],[48.1976,52.2215],[48.1799,52.2439],[48.141,52.248],[48.1228,52.2733],[48.1734,52.3319],[48.2123,52.4205],[48.2267,52.505],[48.2629,52.5385],[48.2779,52.59],[48.418,52.6098],[48.491,52.6748],[48.5261,52.681],[48.4616,52.676],[48.4175,52.6436],[48.3942,52.6589],[48.4398,52.7602],[48.537,52.8061],[48.6156,52.882],[48.6217,52.9038],[48.5573,52.9739],[48.5673,52.9951],[48.5393,53.0216],[48.5432,53.081],[48.6618,53.1384],[48.5134,53.177],[48.4375,53.1096]]]}},{"type":"Feature","properties":{"name":"Ataturk Barajt","featurecla":"Reservoir","scalerank":7,"min_zoom":5.7},"geometry":{"type":"Polygon","coordinates":[[[38.6137,37.5492],[38.6578,37.6101],[38.8809,37.6387],[38.8827,37.6546],[38.8412,37.6761],[38.8471,37.6867],[38.9513,37.6881],[38.9127,37.6979],[38.9357,37.7105],[38.9283,37.7279],[38.9472,37.7479],[38.9728,37.75],[38.9707,37.8085],[38.9922,37.8262],[39.0002,37.881],[38.9828,37.8995],[38.9513,37.8406],[38.9266,37.8433],[38.8827,37.8106],[38.8848,37.7735],[38.9298,37.795],[38.9325,37.7794],[38.873,37.7579],[38.8765,37.7235],[38.8141,37.7152],[38.7891,37.6973],[38.8082,37.6596],[38.7744,37.659],[38.7264,37.699],[38.6672,37.7968],[38.6666,37.7476],[38.7382,37.6593],[38.6298,37.6519],[38.621,37.6198],[38.5056,37.5804],[38.4859,37.5448],[38.4185,37.5242],[38.3873,37.4953],[38.3746,37.5086],[38.3735,37.5754],[38.4211,37.6272],[38.4588,37.6222],[38.4394,37.654],[38.3899,37.6508],[38.3399,37.6796],[38.3408,37.5722],[38.3231,37.5669],[38.3087,37.6004],[38.2775,37.6148],[38.2478,37.596],[38.3361,37.4833],[38.49,37.4447],[38.5401,37.4176],[38.558,37.4238],[38.5198,37.4736],[38.5766,37.4762],[38.6013,37.4921],[38.6137,37.5492]]]}},{"type":"Feature","properties":{"name":"Kainji Reservoir","featurecla":"Reservoir","scalerank":4,"min_zoom":4},"geometry":{"type":"Polygon","coordinates":[[[4.6705,10.3973],[4.6331,10.4812],[4.6599,10.5292],[4.6317,10.5219],[4.6214,10.5436],[4.6546,10.6134],[4.5875,10.5684],[4.5819,10.5955],[4.5637,10.5902],[4.5248,10.6231],[4.516,10.6658],[4.4886,10.6311],[4.4674,10.6658],[4.4583,10.6214],[4.4977,10.5981],[4.4333,10.5292],[4.4748,10.4945],[4.4612,10.4462],[4.4406,10.4536],[4.4612,10.3982],[4.3885,10.4221],[4.3308,10.3847],[4.3929,10.4053],[4.4442,10.3641],[4.4818,10.3061],[4.5101,10.2284],[4.5051,10.2048],[4.4833,10.1907],[4.4474,10.1998],[4.4554,10.1795],[4.5228,10.1854],[4.5228,10.1445],[4.5089,10.1245],[4.4398,10.1386],[4.4333,10.1177],[4.4503,10.1277],[4.4954,10.1103],[4.4474,10.0556],[4.4748,10.0694],[4.4674,10.0421],[4.5027,10.0836],[4.5366,10.07],[4.516,10.0291],[4.5407,10.0344],[4.5687,10.0038],[4.5643,9.9773],[4.5392,9.9558],[4.5625,9.9334],[4.5575,9.891],[4.5772,9.8981],[4.5902,9.8807],[4.571,9.8428],[4.619,9.8616],[4.6435,9.9008],[4.6393,9.919],[4.6217,9.9102],[4.6064,9.9228],[4.6081,9.9511],[4.6258,9.9602],[4.6061,10.0058],[4.6258,10.0421],[4.5964,10.0703],[4.6052,10.1103],[4.6223,10.1174],[4.5916,10.1177],[4.5675,10.0897],[4.5431,10.1445],[4.5631,10.148],[4.5984,10.1998],[4.6084,10.1886],[4.6337,10.2066],[4.6326,10.2201],[4.619,10.2134],[4.6573,10.3408],[4.6638,10.3505],[4.6808,10.3361],[4.6947,10.3641],[4.6705,10.3973]]]}},{"type":"Feature","properties":{"name":"Kakhovka Reservoir","featurecla":"Reservoir","scalerank":4,"min_zoom":4},"geometry":{"type":"Polygon","coordinates":[[[35.3224,47.5511],[35.2093,47.6836],[35.1678,47.7837],[35.1134,47.8481],[35.086,47.8243],[35.1269,47.7657],[35.119,47.6898],[35.0783,47.6291],[34.9859,47.557],[34.897,47.5467],[34.6692,47.5791],[34.5909,47.6112],[34.4487,47.5956],[34.4587,47.5699],[34.3889,47.5399],[34.303,47.5797],[34.2771,47.5676],[34.26,47.6123],[34.2365,47.6091],[34.225,47.6],[34.2574,47.5608],[34.2191,47.5267],[34.147,47.5305],[34.0778,47.5811],[33.9651,47.5405],[33.9277,47.5608],[33.9236,47.5037],[33.9551,47.4646],[33.923,47.4646],[33.9892,47.3795],[33.9483,47.3615],[33.9724,47.3333],[33.958,47.2974],[33.8456,47.202],[33.749,47.184],[33.7867,47.1655],[33.7861,47.1346],[33.6863,47.041],[33.6604,47.0263],[33.6604,47.0742],[33.6404,47.0263],[33.5856,47.0171],[33.5862,46.9998],[33.6445,46.9883],[33.6133,46.9459],[33.5989,46.8894],[33.54,46.8314],[33.6951,46.8479],[33.7069,46.8635],[33.6404,46.8682],[33.6842,46.9053],[33.7899,46.9165],[33.6916,46.9338],[33.6995,46.978],[33.8235,47.0616],[33.8453,47.1152],[33.9053,47.1484],[33.9986,47.2379],[34.036,47.318],[34.0922,47.3365],[34.2159,47.3071],[34.1673,47.348],[34.1914,47.3689],[34.1832,47.3798],[34.1379,47.3562],[34.0301,47.348],[34.0298,47.3922],[34.0513,47.4169],[34.2939,47.4236],[34.3839,47.4913],[34.4684,47.4958],[34.6159,47.5414],[34.7537,47.5061],[34.8926,47.4086],[34.9685,47.3963],[35.0586,47.4219],[35.0995,47.451],[35.2352,47.4569],[35.2823,47.4351],[35.2779,47.4749],[35.3244,47.5061],[35.3224,47.5511]]]}},{"type":"Feature","properties":{"name":"Kremenchuk Reservoir","featurecla":"Reservoir","scalerank":4,"min_zoom":4},"geometry":{"type":"Polygon","coordinates":[[[33.1747,49.0635],[33.2044,49.1027],[33.1809,49.1368],[33.147,49.151],[33.0949,49.2172],[33.0302,49.2534],[33.0007,49.3079],[32.941,49.3282],[32.9006,49.3932],[32.8385,49.4],[32.8653,49.4383],[32.7008,49.4801],[32.749,49.5407],[32.717,49.5702],[32.6651,49.556],[32.6119,49.4656],[32.6737,49.4286],[32.6881,49.3997],[32.749,49.37],[32.7011,49.3488],[32.4444,49.4171],[32.2557,49.521],[32.183,49.5063],[32.1117,49.521],[31.979,49.6022],[31.9454,49.5678],[31.8857,49.5551],[31.989,49.5054],[32.0443,49.4495],[32.1223,49.4271],[32.208,49.37],[32.379,49.3223],[32.452,49.2743],[32.5233,49.2602],[32.6666,49.1919],[32.7334,49.1392],[32.7696,49.0883],[32.8721,49.095],[32.9395,49.0703],[33.0128,49.0956],[33.0987,49.0691],[33.0917,49.0188],[32.9825,48.9791],[33.1223,49.0091],[33.1874,48.9723],[33.1532,49.0206],[33.1747,49.0635]]]}},{"type":"Feature","properties":{"name":"Samara Reservoir","featurecla":"Reservoir","scalerank":4,"min_zoom":4},"geometry":{"type":"Polygon","coordinates":[[[48.8879,54.0],[48.7698,54.0],[48.8784,53.9438],[48.9335,53.8543],[48.9311,53.8311],[48.8852,53.8325],[48.9076,53.8037],[48.8564,53.7469],[48.8578,53.6341],[48.8896,53.5759],[49.0059,53.5188],[49.0447,53.4781],[49.0315,53.4534],[48.9279,53.4537],[49.0574,53.421],[49.0804,53.3984],[49.1775,53.4145],[49.2311,53.4013],[49.2158,53.3716],[49.1863,53.3666],[49.2161,53.336],[49.2049,53.3115],[48.97,53.2939],[48.9196,53.2765],[48.8561,53.2862],[48.7018,53.3666],[48.6547,53.3716],[48.8081,53.2753],[49.1955,53.2753],[49.2593,53.303],[49.2446,53.3498],[49.282,53.406],[49.4563,53.4475],[49.9423,53.4399],[49.8601,53.4746],[49.1345,53.5037],[49.0857,53.5226],[49.0412,53.5873],[49.0836,53.7292],[49.0795,53.8075],[49.1222,53.8317],[49.1831,53.8281],[49.2052,53.7846],[49.2711,53.7416],[49.2658,53.7119],[49.2847,53.711],[49.3144,53.7475],[49.3423,53.7251],[49.3468,53.6827],[49.3703,53.6804],[49.3942,53.7113],[49.3886,53.736],[49.3394,53.7695],[49.3353,53.8055],[49.3117,53.8052],[49.2882,53.7763],[49.2714,53.7846],[49.1955,53.9167],[49.2446,53.97],[49.2638,53.975],[49.2882,53.947],[49.3397,53.9953],[49.4283,53.9891],[49.1071,54.0],[48.9976,53.9444],[48.8879,54.0]]]}},{"type":"Feature","properties":{"name":"Lake Nasser","featurecla":"Reservoir","scalerank":5,"min_zoom":4.7},"geometry":{"type":"Polygon","coordinates":[[[32.2277,22.6514],[32.2831,22.6308],[32.276,22.6102],[32.3178,22.6167],[32.2934,22.5708],[32.2419,22.5552],[32.2557,22.521],[32.2863,22.5413],[32.3266,22.5199],[32.3443,22.5284],[32.3178,22.5346],[32.3313,22.6029],[32.3993,22.6029],[32.4497,22.6885],[32.5851,22.7606],[32.5983,22.8301],[32.6195,22.8463],[32.6151,22.8651],[32.5983,22.8637],[32.603,22.9066],[32.6119,22.9181],[32.6325,22.8902],[32.6254,22.9181],[32.6563,22.932],[32.6937,22.9249],[32.6925,22.9555],[32.7149,22.932],[32.7284,23.0076],[32.744,23.0003],[32.7555,23.0144],[32.7417,23.0144],[32.747,23.0353],[32.7284,23.0485],[32.7764,23.0691],[32.7764,23.0279],[32.7997,23.0247],[32.928,22.9249],[32.941,22.9181],[32.941,22.9455],[33.0007,22.9205],[33.0643,22.9181],[33.0093,22.959],[32.9318,22.9805],[32.9227,23.002],[32.9469,23.03],[32.8727,23.0691],[32.8447,23.1371],[32.863,23.1683],[32.9704,23.1445],[32.9068,23.234],[32.9204,23.2608],[32.9613,23.2546],[32.9545,23.234],[32.9925,23.2219],[33.0166,23.2405],[32.9981,23.2758],[33.0184,23.3261],[32.9919,23.327],[32.9704,23.3517],[33.0028,23.3776],[32.9925,23.4032],[32.9686,23.4118],[32.9745,23.3944],[32.9542,23.3979],[32.9583,23.4247],[32.9204,23.4595],[32.9351,23.4762],[32.8992,23.5004],[32.8953,23.5222],[32.9937,23.4995],[33.0372,23.5142],[32.991,23.5177],[32.9686,23.549],[32.9477,23.5422],[32.9545,23.5693],[32.9348,23.5551],[32.8962,23.5905],[32.9271,23.6587],[32.9751,23.624],[32.9954,23.6826],[32.9825,23.6929],[33.0028,23.7132],[32.9731,23.7403],[32.9704,23.7529],[32.9892,23.7544],[32.9404,23.7783],[32.9295,23.8212],[32.893,23.8642],[32.8794,23.9878],[32.8515,23.9119],[32.8347,23.8966],[32.7832,23.8984],[32.8312,23.886],[32.8794,23.8089],[32.8715,23.7379],[32.853,23.7161],[32.8173,23.7203],[32.8524,23.6964],[32.8653,23.7064],[32.8412,23.6105],[32.8106,23.5905],[32.8206,23.5666],[32.7985,23.5646],[32.7393,23.6111],[32.7014,23.6791],[32.6737,23.6649],[32.6369,23.6116],[32.6119,23.6178],[32.6125,23.5952],[32.6369,23.564],[32.6596,23.5625],[32.6543,23.5872],[32.6796,23.6011],[32.6919,23.5793],[32.7393,23.5616],[32.5574,23.508],[32.6451,23.4583],[32.7149,23.4901],[32.749,23.5351],[32.7797,23.5248],[32.8212,23.473],[32.8794,23.5004],[32.88,23.4665],[32.825,23.385],[32.8942,23.3497],[32.9095,23.3064],[32.893,23.2887],[32.8653,23.3296],[32.8329,23.3188],[32.8268,23.2967],[32.8427,23.2761],[32.8312,23.2608],[32.8103,23.2902],[32.7894,23.2608],[32.7691,23.2781],[32.7211,23.2198],[32.7249,23.196],[32.7008,23.1925],[32.6869,23.1448],[32.6937,23.1015],[32.6596,23.0833],[32.6805,23.0709],[32.6425,23.0556],[32.651,23.0312],[32.6254,22.9941],[32.6369,22.9855],[32.6278,22.9505],[32.5836,22.9193],[32.5506,22.932],[32.5718,22.8857],[32.5459,22.7659],[32.5162,22.7748],[32.4235,22.7165],[32.3867,22.6467],[32.3511,22.6279],[32.3104,22.6438],[32.3104,22.6717],[32.2863,22.6885],[32.2898,22.7127],[32.2419,22.7815],[32.2048,22.7674],[32.1662,22.7748],[32.1662,22.8083],[32.1583,22.7857],[32.1041,22.7559],[32.0638,22.7674],[32.0623,22.7403],[31.9949,22.7333],[32.0025,22.7265],[31.9331,22.6626],[31.8786,22.652],[31.8895,22.6288],[31.8389,22.6005],[31.838,22.5831],[31.8562,22.5773],[31.8448,22.5619],[31.8242,22.5749],[31.7829,22.5631],[31.6661,22.6514],[31.6561,22.614],[31.6693,22.5923],[31.7382,22.5316],[31.8168,22.4937],[31.8112,22.4728],[31.7485,22.4937],[31.7559,22.4695],[31.73,22.4477],[31.6728,22.4595],[31.6937,22.4042],[31.6461,22.3906],[31.6593,22.3839],[31.5151,22.2602],[31.4444,22.2211],[31.4009,22.1604],[31.3582,22.1437],[31.3661,22.1092],[31.337,21.9609],[31.2813,21.8855],[31.2381,21.8593],[31.2278,21.829],[31.1869,21.8222],[31.1668,21.6712],[31.1212,21.6585],[31.0906,21.6091],[31.1818,21.6562],[31.2301,21.7686],[31.2687,21.7813],[31.2831,21.7669],[31.3308,21.8222],[31.3855,21.932],[31.3855,22.035],[31.44,22.1266],[31.5177,22.1896],[31.5424,22.1919],[31.5424,22.2125],[31.5963,22.2487],[31.6864,22.2467],[31.6617,22.2473],[31.6181,22.295],[31.6461,22.3223],[31.6593,22.3088],[31.6661,22.3359],[31.6932,22.3182],[31.6864,22.3424],[31.7688,22.3762],[31.7965,22.3703],[31.8224,22.3415],[31.8451,22.3641],[31.8118,22.4183],[31.8924,22.4112],[31.9036,22.4666],[31.9513,22.4972],[31.9746,22.4937],[31.9401,22.5619],[31.9522,22.5796],[31.9813,22.5619],[31.9696,22.6146],[31.9852,22.6344],[32.0205,22.6517],[32.057,22.6376],[32.0502,22.6847],[32.1488,22.7344],[32.2215,22.7059],[32.2177,22.6862],[32.2483,22.6785],[32.2277,22.6514]]]}},{"type":"Feature","properties":{"name":"Toktogul Suu Saktagychy","featurecla":"Reservoir","scalerank":5,"min_zoom":4.7},"geometry":{"type":"Polygon","coordinates":[[[73.293,41.7807],[73.0866,41.8069],[73.0716,41.8522],[72.9715,41.8711],[72.9536,41.859],[72.9194,41.9008],[72.85,41.8852],[72.5906,41.9211],[72.6254,41.8728],[72.6525,41.8661],[72.7419,41.7842],[72.6707,41.7186],[72.6731,41.7015],[72.6316,41.688],[72.5906,41.7015],[72.6454,41.665],[72.7078,41.6947],[72.777,41.7551],[72.9,41.7301],[73.0437,41.7839],[73.1744,41.7354],[73.2903,41.7557],[73.3109,41.7724],[73.293,41.7807]]]}},{"type":"Feature","properties":{"name":"Lake Volta","featurecla":"Reservoir","scalerank":5,"min_zoom":4.7},"geometry":{"type":"Polygon","coordinates":[[[0.3209,7.5141],[0.3292,7.5679],[0.3014,7.5202],[0.2877,7.5276],[0.2849,7.4899],[0.2417,7.4578],[0.2468,7.5344],[0.2206,7.5299],[0.2058,7.5476],[0.2468,7.5612],[0.2331,7.6027],[0.281,7.5612],[0.2945,7.5959],[0.277,7.603],[0.2864,7.6427],[0.2673,7.6574],[0.2877,7.6989],[0.2746,7.7119],[0.2877,7.7604],[0.2692,7.7622],[0.281,7.7884],[0.218,7.8066],[0.2058,7.8287],[0.2604,7.8423],[0.239,7.8561],[0.2673,7.8702],[0.2331,7.877],[0.253,7.8832],[0.2399,7.8976],[0.2746,7.9173],[0.2673,7.9385],[0.2433,7.9038],[0.2117,7.8935],[0.2119,7.8629],[0.1916,7.8629],[0.1984,7.849],[0.1506,7.8014],[0.1853,7.8867],[0.1769,7.9076],[0.1164,7.89],[0.1306,7.9318],[0.0754,7.9447],[0.1648,7.9933],[0.135,8.0139],[0.1238,8.0483],[0.195,8.0672],[0.2296,8.0954],[0.2639,8.0825],[0.281,8.116],[0.2049,8.1143],[0.1774,8.129],[0.2208,8.2032],[0.1438,8.2129],[0.2058,8.2538],[0.2058,8.2947],[0.2262,8.3153],[0.1916,8.3227],[0.286,8.3186],[0.3014,8.3433],[0.2627,8.3315],[0.2473,8.4021],[0.1086,8.3995],[0.0958,8.4487],[0.1311,8.4613],[0.1095,8.5417],[0.1306,8.5891],[0.1646,8.5805],[0.1809,8.5964],[0.1797,8.6191],[0.1535,8.6391],[0.2195,8.7474],[0.1671,8.7439],[0.1671,8.6989],[0.1369,8.6709],[0.1334,8.6435],[0.1648,8.5891],[0.1164,8.6026],[0.0724,8.5449],[0.0874,8.5387],[0.081,8.4996],[0.1164,8.4793],[0.0717,8.449],[0.0889,8.3807],[0.1306,8.3692],[0.2071,8.3857],[0.2286,8.3553],[0.1709,8.3289],[0.1831,8.2664],[0.1687,8.2438],[0.1033,8.2538],[0.1095,8.2335],[0.084,8.2358],[0.1347,8.187],[0.1648,8.1849],[0.1438,8.1366],[0.1916,8.0901],[0.1369,8.0683],[0.1445,8.0878],[0.1264,8.106],[0.1095,8.1031],[0.1033,8.0825],[0.0765,8.0739],[0.0612,8.0954],[0.0392,8.0739],[0.0396,8.0566],[0.0754,8.0274],[0.0549,8.0068],[0.1033,8.0183],[0.1095,8.0068],[0.0904,7.9738],[0.0481,7.9659],[0.0608,7.9388],[0.0406,7.9385],[0.0723,7.8941],[0.0686,7.8832],[0.0475,7.8908],[0.0405,7.872],[0.0686,7.8629],[0.089,7.8149],[0.0709,7.7896],[0.0829,7.774],[0.0393,7.7843],[0.0346,7.8014],[0.011,7.7734],[-0.0066,7.774],[0.014,7.8149],[-0.0549,7.7672],[-0.0829,7.8287],[-0.089,7.9659],[-0.1123,7.9706],[-0.1342,8.0274],[-0.1513,8.0469],[-0.1815,8.0363],[-0.2021,8.0619],[-0.2467,8.0757],[-0.248,8.1054],[-0.2732,8.1128],[-0.2877,8.1502],[-0.3011,8.1337],[-0.336,8.1366],[-0.3294,8.1993],[-0.2826,8.1811],[-0.2692,8.197],[-0.2331,8.1781],[-0.2164,8.1961],[-0.1838,8.1758],[-0.1779,8.2023],[-0.189,8.2202],[-0.2268,8.2279],[-0.2194,8.2464],[-0.24,8.2335],[-0.3157,8.26],[-0.3294,8.2258],[-0.3628,8.2538],[-0.3933,8.247],[-0.4043,8.2364],[-0.3908,8.2226],[-0.3978,8.1784],[-0.4454,8.1781],[-0.4795,8.2055],[-0.5075,8.1781],[-0.5137,8.2258],[-0.5254,8.2029],[-0.569,8.2258],[-0.5409,8.2812],[-0.5777,8.2676],[-0.6377,8.3289],[-0.6447,8.3692],[-0.657,8.3477],[-0.6922,8.3583],[-0.7717,8.4634],[-0.8242,8.486],[-0.8289,8.5146],[-0.7937,8.5323],[-0.7762,8.5711],[-0.6993,8.61],[-0.7132,8.6312],[-0.7054,8.6647],[-0.73,8.6444],[-0.7328,8.61],[-0.784,8.6803],[-0.8222,8.6853],[-0.7705,8.7545],[-0.7955,8.7745],[-0.8073,8.7183],[-0.8383,8.7015],[-0.8426,8.6818],[-0.7886,8.6147],[-0.846,8.5473],[-0.8632,8.5523],[-0.9116,8.6409],[-0.9785,8.6892],[-0.992,8.7716],[-1.0194,8.7992],[-1.0207,8.8775],[-1.0453,8.8157],[-1.1002,8.8496],[-1.1437,8.9176],[-1.1437,8.9626],[-1.0971,9.0209],[-1.11,9.0821],[-1.1517,9.1166],[-1.1407,9.0259],[-1.1648,8.9732],[-1.1791,9.0074],[-1.1813,8.9276],[-1.0971,8.8087],[-1.1723,8.8157],[-1.1807,8.8042],[-1.0254,8.7745],[-1.0139,8.6927],[-1.044,8.7165],[-1.2089,8.68],[-1.2474,8.6853],[-1.2951,8.7398],[-1.3143,8.7348],[-1.348,8.7627],[-1.3776,8.8434],[-1.3776,8.7745],[-1.3913,8.7945],[-1.4974,8.7536],[-1.5394,8.675],[-1.6172,8.6786],[-1.652,8.6959],[-1.7128,8.6306],[-1.6403,8.6715],[-1.5559,8.6512],[-1.5029,8.685],[-1.4723,8.7457],[-1.3814,8.7539],[-1.2933,8.6953],[-1.2817,8.6627],[-1.1928,8.6709],[-1.1579,8.5343],[-1.1342,8.5558],[-1.1468,8.6541],[-1.0836,8.6842],[-1.0287,8.6741],[-0.9523,8.6362],[-0.9236,8.6038],[-0.8978,8.5069],[-0.8129,8.4331],[-0.7602,8.3353],[-0.8378,8.3339],[-0.8482,8.32],[-0.757,8.3138],[-0.7421,8.2788],[-0.7054,8.2812],[-0.6975,8.2508],[-0.6492,8.2255],[-0.6508,8.1993],[-0.5893,8.1849],[-0.6083,8.1446],[-0.6304,8.1575],[-0.709,8.124],[-0.7402,8.144],[-0.7706,8.1193],[-0.7608,8.0901],[-0.7433,8.109],[-0.724,8.0913],[-0.6477,8.1234],[-0.6327,8.1163],[-0.6583,8.0683],[-0.5591,8.109],[-0.5546,8.1714],[-0.5172,8.1305],[-0.5137,8.0792],[-0.5409,8.0483],[-0.5546,7.9933],[-0.4795,8.0901],[-0.4385,8.0978],[-0.3678,8.0636],[-0.3582,8.041],[-0.3627,8.013],[-0.4567,7.9771],[-0.4576,7.963],[-0.3529,7.98],[-0.3219,8.0516],[-0.3294,8.1031],[-0.2692,8.0519],[-0.2414,7.9986],[-0.2058,7.9862],[-0.2058,7.9727],[-0.1779,7.9862],[-0.2088,7.9253],[-0.1668,7.9309],[-0.1573,7.8702],[-0.174,7.8546],[-0.1504,7.8323],[-0.13,7.8355],[-0.1241,7.8175],[-0.1779,7.8075],[-0.1436,7.781],[-0.1779,7.774],[-0.0957,7.7628],[-0.0829,7.7572],[-0.0914,7.7378],[-0.1573,7.7466],[-0.1676,7.6924],[-0.2194,7.7263],[-0.2746,7.7195],[-0.2331,7.6989],[-0.3131,7.6489],[-0.3493,7.6636],[-0.3629,7.648],[-0.4112,7.6777],[-0.4043,7.6506],[-0.4162,7.6415],[-0.4747,7.6174],[-0.5206,7.63],[-0.5618,7.5723],[-0.6391,7.5673],[-0.6719,7.5405],[-0.6585,7.5317],[-0.569,7.5679],[-0.5621,7.5476],[-0.5039,7.603],[-0.4961,7.5888],[-0.4727,7.5959],[-0.4664,7.5679],[-0.422,7.6138],[-0.3041,7.6144],[-0.2698,7.6344],[-0.2467,7.6227],[-0.2194,7.6442],[-0.2467,7.6506],[-0.2227,7.6589],[-0.1512,7.6368],[-0.1351,7.6512],[-0.1164,7.6368],[-0.0871,7.6577],[-0.0593,7.6545],[-0.0524,7.618],[-0.0221,7.6121],[0.0481,7.5344],[0.0065,7.5476],[-0.0237,7.5394],[-0.0344,7.5538],[-0.0414,7.5405],[-0.0549,7.5612],[-0.0612,7.5344],[-0.0829,7.5344],[-0.13,7.5679],[-0.1369,7.5405],[-0.1706,7.5411],[-0.1921,7.5612],[-0.1984,7.5405],[-0.2262,7.5476],[-0.2194,7.5276],[-0.2536,7.5202],[-0.2331,7.4996],[-0.1679,7.5241],[-0.1194,7.4861],[-0.1164,7.4655],[-0.1381,7.4484],[-0.0818,7.4684],[-0.0549,7.4246],[-0.0361,7.4343],[-0.089,7.5135],[-0.0202,7.5135],[0.0406,7.4793],[0.0549,7.4934],[0.053,7.4723],[0.0346,7.4655],[0.0612,7.4525],[0.0346,7.4381],[0.125,7.3298],[0.1306,7.2942],[0.1573,7.3012],[0.1648,7.321],[0.1965,7.2741],[0.1648,7.2391],[0.1506,7.2662],[0.1573,7.2191],[0.1306,7.2259],[0.1033,7.1776],[0.0926,7.2038],[0.0754,7.1844],[0.0549,7.2056],[0.011,7.192],[0.014,7.2329],[-0.0013,7.1956],[0.016,7.1705],[0.0406,7.1844],[0.0481,7.1434],[0.0608,7.1596],[0.0829,7.157],[0.0749,7.1437],[0.0958,7.129],[0.0686,7.1025],[0.0885,7.0955],[0.0829,7.0746],[0.1306,7.0546],[0.0754,7.0472],[0.1095,7.0269],[0.0612,7.0198],[0.1306,6.9927],[0.1235,6.9571],[0.0481,6.9927],[0.0524,6.9439],[0.0206,6.935],[-0.0003,6.9038],[0.0481,6.9174],[0.0686,6.9038],[0.1095,6.9241],[0.1164,6.8835],[0.0829,6.8835],[0.0686,6.8629],[0.0337,6.8556],[0.0406,6.8417],[0.014,6.8553],[0.014,6.8282],[-0.0344,6.8835],[-0.0509,6.8179],[-0.089,6.8282],[-0.0549,6.794],[-0.0836,6.7823],[-0.0202,6.7599],[-0.014,6.7181],[-0.0344,6.7319],[-0.0458,6.6251],[-0.0829,6.6159],[-0.1164,6.6159],[-0.1164,6.6363],[-0.1439,6.6336],[-0.1744,6.6575],[-0.1779,6.6948],[-0.1587,6.7131],[-0.2058,6.7599],[-0.2121,6.7455],[-0.2331,6.7531],[-0.2536,6.7122],[-0.2844,6.7319],[-0.3566,6.691],[-0.3846,6.8553],[-0.4181,6.8082],[-0.4011,6.7122],[-0.4311,6.7393],[-0.449,6.7157],[-0.5075,6.7319],[-0.5349,6.8691],[-0.5512,6.8567],[-0.5484,6.794],[-0.5584,6.7776],[-0.5817,6.7867],[-0.5893,6.7734],[-0.6364,6.8361],[-0.7197,6.8491],[-0.6993,6.8008],[-0.65,6.7764],[-0.6345,6.734],[-0.6098,6.7319],[-0.5962,6.7046],[-0.5621,6.7319],[-0.5419,6.7078],[-0.4863,6.7046],[-0.4206,6.6778],[-0.3707,6.623],[-0.2746,6.6227],[-0.24,6.5544],[-0.1441,6.5059],[-0.1164,6.5129],[-0.0356,6.4326],[-0.0277,6.3625],[-0.0106,6.339],[0.0346,6.4173],[0.0612,6.4105],[0.0686,6.4655],[0.0942,6.4776],[0.1095,6.3416],[0.1419,6.412],[0.1238,6.4923],[0.1573,6.527],[0.1369,6.5477],[0.1648,6.5948],[0.1438,6.6021],[0.1648,6.6301],[0.1916,6.5886],[0.2127,6.6124],[0.2336,6.6068],[0.2468,6.6301],[0.2668,6.6262],[0.3014,6.6636],[0.3081,6.643],[0.3157,6.6636],[0.3217,6.7867],[0.2827,6.6707],[0.2604,6.6501],[0.2401,6.656],[0.2399,6.8211],[0.22,6.8394],[0.253,6.9592],[0.2677,6.933],[0.281,6.9383],[0.2596,7.0328],[0.2673,7.0546],[0.2746,7.0336],[0.281,7.0546],[0.2945,7.0472],[0.3081,7.0678],[0.2945,7.0819],[0.3113,7.0961],[0.3081,7.1161],[0.2673,7.0958],[0.2795,7.1502],[0.2604,7.1708],[0.292,7.1755],[0.2673,7.1844],[0.2945,7.2191],[0.2673,7.2117],[0.2746,7.28],[0.3217,7.28],[0.2673,7.321],[0.2863,7.3577],[0.2673,7.3625],[0.3081,7.3972],[0.2829,7.4263],[0.3045,7.4434],[0.2945,7.4587],[0.3209,7.5141]],[[0.1709,6.6984],[0.1039,6.6733],[0.089,6.6501],[0.1033,6.6848],[0.0549,6.6775],[0.0612,6.691],[0.0406,6.691],[0.0612,6.7046],[0.0277,6.7122],[0.0277,6.7455],[0.0065,6.7046],[-0.0031,6.7349],[0.0346,6.8008],[0.0612,6.7599],[0.0686,6.8008],[0.0829,6.794],[0.0754,6.8082],[0.1033,6.8143],[0.1033,6.7599],[0.1238,6.7667],[0.1369,6.7531],[0.1506,6.7805],[0.1777,6.7428],[0.1709,6.6984]]]}},{"type":"Feature","properties":{"name":"Shardara Bgeni","featurecla":"Reservoir","scalerank":6,"min_zoom":5},"geometry":{"type":"Polygon","coordinates":[[[68.4383,41.1254],[68.335,41.1331],[68.2806,41.1566],[68.2399,41.2076],[68.1575,41.2081],[68.0916,41.1746],[68.0292,41.242],[67.912,41.242],[67.91,41.2217],[67.9309,41.2152],[67.9491,41.1722],[68.0027,41.116],[68.0339,41.043],[68.0586,41.0551],[68.0819,41.043],[68.0954,41.0654],[68.1169,41.0669],[68.2735,41.0162],[68.3244,41.0574],[68.3692,41.0504],[68.4557,41.1069],[68.4383,41.1254]]]}},{"type":"Feature","properties":{"name":"Tarbela Dam","featurecla":"Reservoir","scalerank":7,"min_zoom":5.7},"geometry":{"type":"Polygon","coordinates":[[[73.0036,34.0831],[72.9468,34.0881],[72.981,34.1366],[72.9654,34.1475],[72.8938,34.129],[72.8688,34.157],[72.8791,34.1776],[72.8573,34.2426],[72.8791,34.308],[72.8591,34.373],[72.8385,34.3924],[72.8506,34.4955],[72.7999,34.5122],[72.8205,34.5735],[72.7817,34.6226],[72.7752,34.602],[72.7958,34.5649],[72.7684,34.5058],[72.8305,34.4866],[72.8096,34.4451],[72.837,34.345],[72.8344,34.2927],[72.8096,34.2464],[72.8126,34.1902],[72.7796,34.1514],[72.6893,34.1146],[72.6969,34.0957],[72.7313,34.0675],[72.7926,34.1019],[72.8344,34.0969],[72.865,34.0751],[72.8797,34.0313],[72.9141,34.0118],[73.0204,34.0628],[73.0036,34.0831]]]}},{"type":"Feature","properties":{"name":"Roseires Reservoir","featurecla":"Reservoir","scalerank":7,"min_zoom":5.7},"geometry":{"type":"Polygon","coordinates":[[[34.3295,11.5939],[34.4552,11.5018],[34.504,11.4962],[34.5662,11.435],[34.6553,11.392],[34.7366,11.2957],[34.7775,11.2963],[34.7339,11.3322],[34.7104,11.3988],[34.5809,11.4853],[34.5288,11.5527],[34.4617,11.5913],[34.4172,11.6637],[34.4349,11.7279],[34.4817,11.7029],[34.4887,11.76],[34.464,11.7991],[34.3934,11.7894],[34.3563,11.7585],[34.3313,11.714],[34.3522,11.6322],[34.3192,11.6225],[34.3295,11.5939]]]}},{"type":"Feature","properties":{"name":"Buhayrat al-Assad","featurecla":"Reservoir","scalerank":7,"min_zoom":5.7},"geometry":{"type":"Polygon","coordinates":[[[38.5577,35.8893],[38.5445,35.9037],[38.5156,35.8902],[38.498,35.9043],[38.4815,35.8878],[38.4235,35.9658],[38.4047,35.9278],[38.3717,35.9205],[38.2684,35.9702],[38.2548,35.9938],[38.1748,36.0138],[38.1492,36.055],[38.1182,36.0718],[38.0944,36.1339],[38.1356,36.1719],[38.1253,36.1954],[38.2257,36.2522],[38.1968,36.3364],[38.1786,36.3426],[38.1592,36.2628],[38.1038,36.2496],[38.0912,36.2163],[38.0249,36.146],[38.0188,36.0756],[38.0529,36.027],[38.0873,36.0079],[38.0741,35.9938],[38.11,35.9897],[38.1344,35.9487],[38.2039,35.9317],[38.2537,35.8775],[38.3181,35.8593],[38.3355,35.8363],[38.3102,35.7854],[38.3505,35.7945],[38.3682,35.7739],[38.3614,35.8186],[38.3938,35.8472],[38.4091,35.8086],[38.4582,35.8013],[38.5121,35.8428],[38.5598,35.8528],[38.5736,35.8902],[38.5577,35.8893]]]}},{"type":"Feature","properties":{"name":"Keban Baraji","featurecla":"Reservoir","scalerank":7,"min_zoom":5.7},"geometry":{"type":"Polygon","coordinates":[[[39.8512,38.6905],[39.8238,38.6634],[39.7523,38.6451],[39.6807,38.6725],[39.5568,38.674],[39.5015,38.7016],[39.4879,38.7502],[39.53,38.8058],[39.618,38.8362],[39.8005,38.8582],[39.6021,38.8506],[39.6183,38.9071],[39.6157,38.9368],[39.5948,38.9542],[39.5765,38.9548],[39.5957,38.89],[39.5751,38.8365],[39.5303,38.8164],[39.5023,38.782],[39.4608,38.7755],[39.4217,38.7914],[39.4028,38.7817],[39.3681,38.8226],[39.3125,38.8344],[39.2618,38.8915],[39.2215,38.8712],[39.0687,38.9077],[39.0464,38.898],[39.0222,38.938],[38.9866,38.9265],[38.9628,38.9604],[38.9572,38.9298],[38.921,38.9298],[38.8957,38.9674],[38.9163,39.0296],[38.8754,38.9954],[38.8547,38.9401],[38.8754,38.9198],[38.7865,38.9198],[38.8474,38.9401],[38.8091,38.9819],[38.8065,39.0151],[38.7706,39.0375],[38.7491,39.0781],[38.732,39.0772],[38.7455,39.0296],[38.6999,39.0334],[38.7685,38.9963],[38.7656,38.971],[38.7264,38.9248],[38.6808,38.9198],[38.6419,38.9878],[38.6666,38.8992],[38.7252,38.8989],[38.7732,38.8715],[38.7791,38.8582],[38.7497,38.8303],[38.78,38.8076],[38.8009,38.8565],[38.8683,38.8426],[38.9304,38.878],[38.9601,38.8653],[38.9851,38.8812],[39.0296,38.8644],[39.064,38.8797],[39.0843,38.878],[39.0805,38.8359],[39.0949,38.8226],[39.117,38.8609],[39.1353,38.8656],[39.2103,38.8276],[39.2242,38.8335],[39.2186,38.8506],[39.2451,38.8582],[39.3063,38.8073],[39.3681,38.7961],[39.3825,38.7626],[39.4426,38.7802],[39.4717,38.7626],[39.4779,38.6999],[39.4073,38.6389],[39.3655,38.6239],[39.3543,38.6119],[39.3714,38.593],[39.5439,38.6266],[39.5871,38.6528],[39.6878,38.6551],[39.7849,38.6101],[39.8473,38.641],[39.8621,38.6725],[39.8512,38.6905]]]}},{"type":"Feature","properties":{"name":"Volgograd Reservoir","featurecla":"Reservoir","scalerank":7,"min_zoom":5.7},"geometry":{"type":"Polygon","coordinates":[[[46.3434,50.183],[46.359,50.2057],[46.4067,50.2198],[46.331,50.2328],[46.3652,50.2746],[46.4346,50.2949],[46.427,50.3187],[46.4437,50.3741],[46.3931,50.3502],[46.3684,50.3555],[46.3657,50.3178],[46.3228,50.3016],[46.2963,50.2722],[46.2609,50.2852],[46.2554,50.3155],[46.0926,50.3128],[46.0525,50.3423],[46.0355,50.3429],[46.0428,50.3211],[46.0222,50.309],[45.858,50.2949],[45.9195,50.3393],[45.9215,50.4008],[45.8409,50.5239],[45.7314,50.6137],[45.7152,50.6475],[45.7523,50.7108],[45.7543,50.7241],[45.7352,50.727],[45.7493,50.7402],[45.9274,50.7809],[46.009,50.7741],[46.064,50.8498],[46.0696,50.9177],[46.0281,50.9746],[46.0408,51.0334],[46.0031,51.0699],[45.8803,51.1217],[45.858,51.1721],[45.8744,51.2592],[45.9945,51.3558],[45.9998,51.4123],[46.0293,51.4397],[46.0157,51.4532],[45.981,51.4458],[45.9848,51.4706],[46.1594,51.5291],[46.2221,51.5915],[46.3163,51.6316],[46.3454,51.6593],[46.2554,51.6375],[46.3151,51.7164],[46.3931,51.727],[46.487,51.7729],[46.5253,51.7411],[46.5909,51.719],[46.7075,51.7152],[46.7767,51.7411],[46.7204,51.7473],[46.6719,51.7741],[46.5188,51.7841],[46.5091,51.7991],[46.52,51.8067],[46.5912,51.81],[46.5506,51.83],[46.5747,51.8933],[46.5577,51.9056],[46.5438,51.8603],[46.4744,51.7976],[46.3451,51.7952],[46.2866,51.7546],[46.2492,51.7685],[46.2492,51.6822],[46.2141,51.6516],[46.1879,51.656],[46.1697,51.5786],[45.9672,51.4944],[45.9257,51.4082],[45.8103,51.3502],[45.7773,51.2766],[45.7947,51.1409],[45.8556,51.092],[45.9934,51.037],[46.0022,51.0181],[45.9786,50.9584],[46.0431,50.8845],[45.9984,50.853],[45.8771,50.813],[45.714,50.7809],[45.6596,50.7541],[45.644,50.7267],[45.6384,50.6375],[45.6596,50.6034],[45.7314,50.5551],[45.8577,50.4226],[45.8518,50.3911],[45.7287,50.3408],[45.6937,50.3093],[45.656,50.2328],[45.6778,50.2086],[45.7841,50.1857],[45.8376,50.2057],[45.8232,50.221],[45.8465,50.2384],[45.9065,50.2607],[46.0066,50.276],[46.0481,50.2584],[46.1135,50.2616],[46.1491,50.2875],[46.1703,50.2843],[46.1723,50.2478],[46.2147,50.2607],[46.1938,50.2057],[46.2356,50.2057],[46.2536,50.2504],[46.3036,50.2198],[46.3192,50.1786],[46.3434,50.183]]]}},{"type":"Feature","properties":{"name":"Obanbori Qayroqum","featurecla":"Reservoir","scalerank":7,"min_zoom":5.7},"geometry":{"type":"Polygon","coordinates":[[[70.3732,40.4122],[70.3549,40.4354],[70.342,40.3828],[70.2884,40.3722],[70.3429,40.4063],[70.2057,40.4063],[70.1368,40.3651],[69.9252,40.3036],[69.851,40.2968],[69.8221,40.2653],[69.8501,40.2418],[69.9119,40.232],[70.12,40.2765],[70.1833,40.2656],[70.3255,40.315],[70.3708,40.3651],[70.3847,40.3998],[70.3732,40.4122]]]}},{"type":"Feature","properties":{"name":"Embalse de Entrepeas","featurecla":"Reservoir","scalerank":7,"min_zoom":5.7},"geometry":{"type":"Polygon","coordinates":[[[-2.602,40.7189],[-2.7151,40.6115],[-2.7271,40.5838],[-2.714,40.5638],[-2.7376,40.512],[-2.7239,40.5023],[-2.673,40.5638],[-2.6953,40.5817],[-2.6934,40.6009],[-2.6577,40.6603],[-2.5769,40.7242],[-2.602,40.7189]]]}},{"type":"Feature","properties":{"name":"Lac de Kossou","featurecla":"Reservoir","scalerank":7,"min_zoom":5.7},"geometry":{"type":"Polygon","coordinates":[[[-5.3449,7.4307],[-5.3663,7.4307],[-5.3724,7.4057],[-5.4276,7.3692],[-5.4231,7.4193],[-5.3792,7.4587],[-5.3995,7.4628],[-5.4061,7.555],[-5.4506,7.575],[-5.4338,7.5102],[-5.4708,7.4487],[-5.4892,7.4934],[-5.5096,7.4587],[-5.5158,7.5073],[-5.5505,7.4655],[-5.5474,7.4207],[-5.5027,7.4043],[-5.5245,7.3869],[-5.5096,7.3763],[-5.5134,7.356],[-5.558,7.3972],[-5.5566,7.3686],[-5.5158,7.3012],[-5.552,7.2945],[-5.5785,7.3148],[-5.5922,7.2739],[-5.5505,7.2426],[-5.5688,7.1982],[-5.6251,7.2362],[-5.6126,7.3148],[-5.6396,7.3068],[-5.6605,7.321],[-5.6474,7.3351],[-5.6589,7.3583],[-5.6349,7.3633],[-5.6194,7.4104],[-5.6474,7.3898],[-5.702,7.4246],[-5.6809,7.4525],[-5.6862,7.5055],[-5.6377,7.5023],[-5.6256,7.5202],[-5.6057,7.4996],[-5.572,7.5014],[-5.5785,7.5311],[-5.558,7.5753],[-5.6181,7.5556],[-5.6194,7.6336],[-5.6062,7.6551],[-5.5785,7.6574],[-5.537,7.7766],[-5.4959,7.8287],[-5.558,7.7884],[-5.582,7.7884],[-5.5785,7.7604],[-5.6054,7.7407],[-5.6194,7.7398],[-5.6057,7.7604],[-5.629,7.7731],[-5.5989,7.7952],[-5.6256,7.8075],[-5.5847,7.8355],[-5.5922,7.8558],[-5.5729,7.9085],[-5.5301,7.8976],[-5.5374,7.9173],[-5.5158,7.925],[-5.5374,7.9521],[-5.5535,7.9332],[-5.5785,7.9385],[-5.5533,7.9562],[-5.5385,8.0365],[-5.4749,8.0954],[-5.5265,8.1093],[-5.5881,7.9892],[-5.6194,7.9659],[-5.6144,7.9409],[-5.6483,7.8852],[-5.6399,7.8629],[-5.6605,7.8423],[-5.6809,7.89],[-5.7132,7.8758],[-5.702,7.9038],[-5.7294,7.9112],[-5.7333,7.8702],[-5.6996,7.8464],[-5.702,7.822],[-5.6809,7.8149],[-5.702,7.8075],[-5.6795,7.7743],[-5.6884,7.7672],[-5.7541,7.8058],[-5.7089,7.7543],[-5.7491,7.7543],[-5.7367,7.7295],[-5.7199,7.7354],[-5.7089,7.7195],[-5.721,7.6866],[-5.7024,7.648],[-5.7211,7.6383],[-5.7423,7.6574],[-5.7427,7.6383],[-5.7218,7.6088],[-5.7026,7.6124],[-5.7218,7.5476],[-5.7707,7.5617],[-5.7433,7.5208],[-5.7538,7.4996],[-5.7764,7.4996],[-5.7628,7.4793],[-5.7907,7.4307],[-5.784,7.4178],[-5.7491,7.4307],[-5.7651,7.4169],[-5.7616,7.3884],[-5.784,7.3763],[-5.7582,7.3315],[-5.8392,7.3283],[-5.8116,7.2541],[-5.7764,7.2942],[-5.7703,7.2465],[-5.7218,7.2391],[-5.7703,7.2191],[-5.7398,7.2076],[-5.731,7.1567],[-5.692,7.1764],[-5.7196,7.1158],[-5.7089,7.0958],[-5.6884,7.1025],[-5.6621,7.0704],[-5.646,7.0931],[-5.5847,7.0881],[-5.5833,7.0646],[-5.5096,7.0472],[-5.4612,6.9721],[-5.4481,6.9927],[-5.4276,6.9721],[-5.4338,6.9592],[-5.4139,6.9721],[-5.4139,6.938],[-5.3866,6.938],[-5.3844,6.9577],[-5.3593,6.9592],[-5.3593,6.9789],[-5.3473,6.9795],[-5.3593,6.9927],[-5.352,7.0336],[-5.3794,7.0298],[-5.3929,7.0678],[-5.4309,7.0719],[-5.4338,7.1025],[-5.3892,7.0916],[-5.3792,7.1161],[-5.4139,7.1161],[-5.4003,7.1708],[-5.4276,7.1434],[-5.4391,7.1608],[-5.4685,7.154],[-5.4759,7.2223],[-5.4406,7.2532],[-5.4214,7.2332],[-5.3929,7.2391],[-5.3929,7.2739],[-5.3595,7.298],[-5.4254,7.2792],[-5.4499,7.2892],[-5.4273,7.346],[-5.3792,7.3489],[-5.3615,7.3792],[-5.3109,7.4104],[-5.3022,7.436],[-5.3449,7.4307]]]}},{"type":"Feature","properties":{"name":"Embalse de García de Sola","featurecla":"Reservoir","scalerank":7,"min_zoom":5.7},"geometry":{"type":"Polygon","coordinates":[[[-5.0873,39.2871],[-5.065,39.273],[-5.0026,39.3572],[-5.0235,39.3601],[-5.0592,39.3036],[-5.0873,39.2871]]]}},{"type":"Feature","properties":{"name":"Embalse de Orellana","featurecla":"Reservoir","scalerank":7,"min_zoom":5.7},"geometry":{"type":"Polygon","coordinates":[[[-5.065,39.273],[-5.0873,39.2871],[-5.118,39.2689],[-5.1602,39.2827],[-5.1927,39.1888],[-5.1807,39.1591],[-5.1636,39.2156],[-5.065,39.273]]]}},{"type":"Feature","properties":{"name":"Embalse de Cala","featurecla":"Reservoir","scalerank":7,"min_zoom":5.7},"geometry":{"type":"Polygon","coordinates":[[[-5.0235,39.3601],[-5.0026,39.3572],[-5.0114,39.3754],[-4.9905,39.3854],[-4.9449,39.369],[-4.8798,39.333],[-4.8326,39.2668],[-4.7697,39.2486],[-4.8343,39.291],[-4.8719,39.3619],[-4.9596,39.4019],[-4.8448,39.3925],[-4.9565,39.4249],[-4.9881,39.3993],[-5.0503,39.4199],[-5.0235,39.3601]]]}},{"type":"Feature","properties":{"name":"Lac de Buyo","featurecla":"Reservoir","scalerank":7,"min_zoom":5.7},"geometry":{"type":"Polygon","coordinates":[[[-6.9293,6.517],[-6.9084,6.5362],[-6.942,6.5491],[-6.9421,6.575],[-6.9669,6.573],[-6.951,6.643],[-6.9209,6.6636],[-6.9641,6.6966],[-6.9551,6.794],[-6.9626,6.8082],[-6.9839,6.7964],[-7.0035,6.8417],[-7.0418,6.8644],[-7.0384,6.9312],[-7.0519,6.9592],[-7.0384,7.041],[-7.0624,7.026],[-7.0871,6.9715],[-7.0583,6.9241],[-7.0793,6.8726],[-7.0519,6.8143],[-7.021,6.7946],[-6.9973,6.7252],[-7.0172,6.7319],[-7.0138,6.6675],[-6.9954,6.6469],[-7.0176,6.6368],[-7.0172,6.6092],[-7.0624,6.6033],[-7.0722,6.5771],[-7.1264,6.5886],[-7.1264,6.5783],[-7.0996,6.55],[-7.0465,6.5577],[-7.088,6.5135],[-7.0519,6.527],[-7.0179,6.5138],[-7.0119,6.4991],[-7.0309,6.485],[-7.0618,6.4894],[-7.024,6.4688],[-7.0384,6.4446],[-7.0384,6.3825],[-7.0583,6.3858],[-7.0616,6.4655],[-7.079,6.462],[-7.1129,6.4005],[-7.1061,6.369],[-7.1207,6.3295],[-7.1526,6.3113],[-7.1817,6.3625],[-7.2172,6.3543],[-7.2272,6.4181],[-7.2636,6.412],[-7.307,6.4311],[-7.3107,6.4623],[-7.3305,6.4658],[-7.34,6.4997],[-7.3666,6.4767],[-7.4077,6.472],[-7.4589,6.5668],[-7.497,6.575],[-7.4649,6.5332],[-7.4771,6.4782],[-7.4512,6.4691],[-7.4411,6.4349],[-7.3803,6.4446],[-7.3597,6.4072],[-7.34,6.4105],[-7.3095,6.3672],[-7.2739,6.3628],[-7.2836,6.3454],[-7.2718,6.3322],[-7.2508,6.3357],[-7.23,6.3075],[-7.1979,6.301],[-7.2135,6.2854],[-7.2172,6.2371],[-7.1711,6.2527],[-7.1476,6.2315],[-7.1397,6.2542],[-7.1232,6.2462],[-7.0719,6.263],[-7.0446,6.2527],[-7.0287,6.2989],[-7.0379,6.331],[-7.0035,6.3416],[-6.9803,6.4278],[-6.9973,6.4582],[-6.9284,6.485],[-6.9293,6.517]]]}},{"type":"Feature","properties":{"name":"Tsimlyansk Reservoir","featurecla":"Reservoir","scalerank":7,"min_zoom":5.7},"geometry":{"type":"Polygon","coordinates":[[[44.0082,49.196],[43.8842,49.2328],[43.8366,49.2254],[43.773,49.186],[43.7515,49.1951],[43.7135,49.2328],[43.7209,49.2602],[43.6926,49.2955],[43.7182,49.3385],[43.7006,49.3803],[43.6237,49.4662],[43.549,49.5066],[43.6223,49.4533],[43.6794,49.3838],[43.6938,49.3246],[43.6591,49.2802],[43.7,49.2534],[43.6805,49.2405],[43.6962,49.2107],[43.7639,49.1786],[43.8742,49.2057],[43.989,49.1851],[43.9525,49.1436],[43.9464,49.1095],[43.9216,49.0971],[43.9104,49.0029],[43.8901,48.9723],[43.8501,48.9517],[43.6446,48.9376],[43.5887,48.8495],[43.4539,48.7839],[43.4362,48.7551],[43.4465,48.7121],[43.5213,48.6467],[43.4954,48.6085],[43.4256,48.5567],[43.4015,48.5104],[43.3429,48.4651],[43.1722,48.4725],[43.1519,48.4583],[43.111,48.4995],[43.1419,48.5175],[43.1374,48.534],[43.0515,48.5063],[42.9664,48.5546],[42.9252,48.5469],[43.0412,48.489],[43.0692,48.4583],[43.0762,48.4242],[43.1033,48.4036],[43.0971,48.3353],[43.0762,48.2664],[43.0353,48.222],[42.9046,48.2181],[42.9184,48.1908],[42.7604,48.1634],[42.8596,48.1566],[42.864,48.1225],[42.8357,48.071],[42.8425,47.9985],[42.8013,47.9535],[42.8092,47.9382],[42.8572,47.9791],[42.8549,47.9659],[42.7919,47.8784],[42.5858,47.8125],[42.5387,47.8107],[42.4569,47.8437],[42.466,47.9102],[42.406,47.9988],[42.3765,47.9582],[42.3268,47.9526],[42.3,47.9603],[42.2791,47.9894],[42.2123,48.0127],[42.2847,47.9582],[42.3709,47.9308],[42.3327,47.8381],[42.2067,47.8481],[42.2555,47.8322],[42.2885,47.801],[42.2488,47.7795],[42.1752,47.7875],[42.2399,47.7463],[42.2346,47.7301],[42.1242,47.6792],[42.1098,47.6017],[42.1375,47.5926],[42.1749,47.5334],[42.2652,47.5888],[42.3533,47.5882],[42.3848,47.5649],[42.3765,47.6091],[42.413,47.635],[42.4592,47.6397],[42.5349,47.6091],[42.5219,47.6344],[42.6809,47.7469],[42.9096,47.7757],[42.9973,47.8481],[43.0462,47.801],[43.0488,47.7798],[43.0271,47.7636],[43.0368,47.698],[43.063,47.6821],[43.088,47.6939],[43.0809,47.7772],[43.1033,47.8246],[43.0421,47.9138],[43.0483,47.9441],[43.1101,48.0127],[43.2246,48.0035],[43.247,48.02],[43.1372,48.0515],[43.118,48.0792],[43.0889,48.0877],[43.1239,48.171],[43.1519,48.1846],[43.1374,48.222],[43.1595,48.2682],[43.1822,48.2903],[43.2779,48.3144],[43.3506,48.287],[43.302,48.3485],[43.3591,48.3965],[43.3709,48.4174],[43.3538,48.4268],[43.3618,48.4374],[43.4665,48.4925],[43.6143,48.5116],[43.4945,48.5199],[43.5348,48.5852],[43.702,48.627],[43.7889,48.6779],[43.76,48.6835],[43.6658,48.65],[43.5746,48.6423],[43.4839,48.7044],[43.473,48.743],[43.5107,48.7815],[43.5722,48.7998],[43.6211,48.8419],[43.652,48.9175],[43.7091,48.9276],[43.821,48.9175],[43.9075,48.9523],[43.9726,49.0406],[43.944,49.0906],[43.9681,49.1053],[43.9846,49.1469],[44.0247,49.1601],[44.0082,49.196]]]}},{"type":"Feature","properties":{"name":"Embalse de Buendía","featurecla":"Reservoir","scalerank":9,"min_zoom":7},"geometry":{"type":"Polygon","coordinates":[[[-2.4972,40.4372],[-2.5352,40.4681],[-2.6519,40.4714],[-2.673,40.4478],[-2.7286,40.4399],[-2.7754,40.4063],[-2.7243,40.4028],[-2.7148,40.3518],[-2.673,40.3242],[-2.6712,40.3666],[-2.6588,40.3515],[-2.6585,40.3651],[-2.6915,40.3984],[-2.6691,40.4422],[-2.5614,40.4549],[-2.5097,40.4307],[-2.4669,40.434],[-2.4972,40.4372]]]}},{"type":"Feature","properties":{"name":"IJsselmeer","featurecla":"Alkaline Lake","scalerank":2,"min_zoom":2},"geometry":{"type":"Polygon","coordinates":[[[5.8704,52.54],[5.8406,52.6042],[5.6605,52.6115],[5.5978,52.6695],[5.6119,52.7752],[5.6564,52.8196],[5.7217,52.8373],[5.6375,52.855],[5.5575,52.8373],[5.4109,52.8573],[5.3691,52.8785],[5.3661,52.895],[5.4132,52.9244],[5.3997,52.9403],[5.4203,52.9677],[5.4094,53.0322],[5.3723,53.0769],[5.0441,52.9336],[5.115,52.8611],[5.1227,52.7755],[5.1365,52.7622],[5.1704,52.746],[5.2201,52.7628],[5.2869,52.7484],[5.304,52.7069],[5.1657,52.6301],[5.0497,52.6418],[5.0364,52.5997],[5.0909,52.5008],[5.0706,52.4879],[5.0782,52.4735],[5.0503,52.4673],[5.0918,52.4393],[5.0249,52.3781],[4.982,52.3854],[4.9681,52.371],[5.1813,52.3116],[5.2684,52.3116],[5.4047,52.2574],[5.5333,52.268],[5.6237,52.3563],[5.8009,52.4228],[5.8606,52.4782],[5.8704,52.54]],[[5.8583,52.5064],[5.8294,52.4614],[5.7812,52.4258],[5.6499,52.399],[5.6166,52.3754],[5.5436,52.3581],[5.5457,52.3024],[5.4892,52.2756],[5.4232,52.2739],[5.3046,52.321],[5.1739,52.3369],[5.153,52.3439],[5.133,52.3854],[5.4412,52.5085],[5.4862,52.5571],[5.6537,52.6115],[5.6808,52.5936],[5.8392,52.5703],[5.8583,52.5064]]]}},{"type":"Feature","properties":{"name":"Syvash","featurecla":"Alkaline Lake","scalerank":2,"min_zoom":2},"geometry":{"type":"Polygon","coordinates":[[[35.3877,45.3066],[34.9998,45.6748],[34.8947,45.8464],[34.8723,45.8544],[34.8458,45.8214],[34.8114,45.8179],[34.8255,45.8956],[34.8479,45.913],[34.8155,45.9356],[34.7952,46.0292],[34.7707,46.036],[34.7537,46.0116],[34.6609,46.0872],[34.7219,46.1096],[34.7743,46.0872],[34.7881,46.0946],[34.7707,46.142],[34.7422,46.1623],[34.6521,46.1844],[34.6203,46.1623],[34.6294,46.0713],[34.5756,45.9969],[34.5553,45.9824],[34.5143,45.9948],[34.4828,45.9668],[34.4617,45.9707],[34.4725,45.993],[34.4617,46.003],[34.4013,46.0113],[34.4275,46.0463],[34.4614,46.0342],[34.469,46.0463],[34.4496,46.0572],[34.4396,46.0908],[34.4826,46.1282],[34.4943,46.127],[34.4929,46.0946],[34.5241,46.1282],[34.5523,46.0852],[34.5726,46.1594],[34.5444,46.1873],[34.4846,46.1455],[34.3112,46.2144],[34.2909,46.1903],[34.3313,46.1767],[34.3313,46.1629],[34.308,46.1017],[34.2897,46.1614],[34.2373,46.2344],[34.1817,46.2792],[34.1526,46.2762],[34.1476,46.2347],[34.202,46.1835],[34.159,46.147],[34.1537,46.1903],[34.1352,46.2079],[34.1155,46.1891],[34.0778,46.1903],[34.1234,46.1652],[34.1381,46.1243],[34.0855,46.1282],[34.0672,46.1508],[34.0339,46.1358],[33.9721,46.2109],[33.8938,46.2312],[33.8229,46.2241],[33.7714,46.2474],[33.714,46.2191],[33.6678,46.2238],[33.7322,46.1455],[33.787,46.1214],[33.7996,46.1279],[33.8043,46.1767],[33.852,46.1594],[33.8385,46.1152],[33.8856,46.0652],[33.8656,46.0599],[33.8656,46.0387],[33.9135,46.0599],[33.9815,46.0175],[33.9765,46.0607],[33.996,46.0669],[33.9913,46.0769],[33.9397,46.0987],[34.0375,46.0872],[34.079,46.0454],[34.1673,45.998],[34.1446,45.9789],[34.1128,45.9848],[34.1537,45.9365],[34.1961,45.9501],[34.2008,45.9886],[34.1131,46.0484],[34.1161,46.0599],[34.2285,46.0292],[34.2159,46.0184],[34.2268,46.0045],[34.2771,46.046],[34.2806,46.0086],[34.2977,45.9992],[34.3183,45.998],[34.3313,46.0251],[34.3498,46.026],[34.3866,45.9916],[34.3592,45.9848],[34.4107,45.9562],[34.4069,45.9365],[34.3728,45.9197],[34.3592,45.8818],[34.3866,45.9024],[34.3795,45.8818],[34.4069,45.8956],[34.4116,45.8647],[34.4449,45.9324],[34.4826,45.9297],[34.4617,45.9097],[34.4881,45.8756],[34.5305,45.9197],[34.5691,45.9183],[34.5753,45.9392],[34.5441,45.9707],[34.6268,45.9474],[34.6227,45.9038],[34.5461,45.8629],[34.5411,45.8394],[34.4617,45.772],[34.5464,45.7926],[34.6477,45.8588],[34.7072,45.8715],[34.7501,45.9024],[34.7472,45.8582],[34.6804,45.8482],[34.6471,45.7855],[34.7242,45.8132],[34.7501,45.8061],[34.7648,45.7837],[34.716,45.7243],[34.7916,45.7172],[34.8723,45.7372],[34.839,45.7037],[34.8723,45.6969],[34.9003,45.6689],[34.9768,45.6631],[35.0669,45.5615],[35.0957,45.4744],[35.056,45.4396],[35.0103,45.4299],[35.0519,45.3749],[35.1228,45.3325],[35.1934,45.3366],[35.3498,45.2854],[35.4045,45.2512],[35.4554,45.2792],[35.3877,45.3066]]]}},{"type":"Feature","properties":{"name":"Lake Turkana","featurecla":"Alkaline Lake","scalerank":3,"min_zoom":3},"geometry":{"type":"Polygon","coordinates":[[[35.8687,4.0],[36.2053,4.0],[36.2446,4.1451],[36.237,4.1827],[36.2161,4.1998],[36.2149,4.2858],[36.1884,4.3393],[36.2072,4.4624],[36.1981,4.5472],[36.1684,4.6149],[36.1866,4.6246],[36.1675,4.6602],[36.1236,4.6631],[36.1269,4.6216],[36.1066,4.6378],[36.0433,4.6366],[36.025,4.6034],[36.0583,4.5604],[36.038,4.5254],[36.0071,4.591],[36.0041,4.6352],[35.9882,4.6352],[35.9556,4.594],[35.9152,4.4229],[35.9226,4.118],[35.8687,4.0]]]}},{"type":"Feature","properties":{"name":"Lake Razazah","featurecla":"Alkaline Lake","scalerank":3,"min_zoom":3},"geometry":{"type":"Polygon","coordinates":[[[43.8263,32.7246],[43.7321,32.7755],[43.6161,32.9901],[43.6246,33.0125],[43.5554,33.0398],[43.5351,33.0737],[43.5348,33.1149],[43.5216,33.1046],[43.526,33.0331],[43.5045,33.0181],[43.4869,33.026],[43.453,32.9851],[43.4945,32.9442],[43.4869,32.913],[43.4554,32.8891],[43.4727,32.8759],[43.4392,32.8888],[43.405,32.8759],[43.4495,32.8367],[43.4256,32.7996],[43.4115,32.807],[43.4451,32.6792],[43.4989,32.6124],[43.5378,32.5956],[43.5737,32.5909],[43.5837,32.6077],[43.6311,32.5948],[43.6111,32.5742],[43.6638,32.588],[43.6794,32.5806],[43.652,32.5806],[43.6517,32.5503],[43.6691,32.5332],[43.6823,32.5665],[43.7067,32.5668],[43.7135,32.5462],[43.7347,32.5606],[43.7409,32.5117],[43.7689,32.5053],[43.8919,32.6183],[43.8981,32.704],[43.8263,32.7246]]]}},{"type":"Feature","properties":{"name":"Dead Sea","featurecla":"Alkaline Lake","scalerank":3,"min_zoom":3},"geometry":{"type":"Polygon","coordinates":[[[35.559,31.7655],[35.5069,31.7558],[35.4766,31.7305],[35.408,31.6148],[35.4148,31.5663],[35.3927,31.5141],[35.4148,31.3266],[35.4422,31.3222],[35.4913,31.367],[35.5105,31.3676],[35.5013,31.3181],[35.5128,31.3049],[35.5476,31.3319],[35.572,31.4682],[35.5546,31.5383],[35.5882,31.7305],[35.5864,31.7529],[35.559,31.7655]]]}},{"type":"Feature","properties":{"name":"Lake Urmia","featurecla":"Alkaline Lake","scalerank":4,"min_zoom":4},"geometry":{"type":"Polygon","coordinates":[[[45.9021,37.4008],[45.8571,37.4235],[45.7929,37.5259],[45.7258,37.5639],[45.7052,37.6134],[45.6599,37.6405],[45.7897,37.6413],[45.7967,37.6652],[45.7605,37.6996],[45.7555,37.7273],[45.742,37.7117],[45.6454,37.7673],[45.5221,37.7614],[45.518,37.7376],[45.4941,37.7273],[45.4217,37.7982],[45.4061,37.901],[45.4676,37.9601],[45.4538,37.9737],[45.4879,37.9878],[45.4738,38.0426],[45.5027,38.0955],[45.4847,38.1659],[45.3617,38.266],[45.0941,38.268],[45.0473,38.2504],[45.0493,38.2071],[45.0037,38.1756],[45.0037,38.1379],[45.0505,38.1264],[45.1115,38.1591],[45.14,38.13],[45.1727,38.1659],[45.1995,38.1135],[45.1812,38.0384],[45.0914,38.0152],[45.0599,37.9878],[45.0479,37.954],[45.0599,37.8577],[45.1456,37.8297],[45.1689,37.8386],[45.2207,37.8059],[45.253,37.7603],[45.2622,37.6958],[45.2348,37.669],[45.2628,37.6148],[45.2486,37.6042],[45.2822,37.5736],[45.2622,37.5045],[45.2925,37.4747],[45.3243,37.3908],[45.2825,37.3635],[45.3031,37.3361],[45.3169,37.2651],[45.3564,37.2107],[45.3958,37.1963],[45.4629,37.1212],[45.5121,37.1445],[45.5668,37.1238],[45.6001,37.1498],[45.6236,37.264],[45.6596,37.3096],[45.7005,37.3231],[45.7025,37.2943],[45.7485,37.2849],[45.8141,37.3231],[45.8347,37.3561],[45.8756,37.3741],[45.9089,37.3629],[45.9021,37.4008]],[[45.5427,37.3437],[45.5324,37.3741],[45.4838,37.4003],[45.5086,37.412],[45.4968,37.4365],[45.5412,37.4179],[45.5297,37.397],[45.5577,37.3405],[45.5427,37.3437]],[[45.6525,37.4871],[45.6116,37.4597],[45.5639,37.4871],[45.5892,37.5283],[45.6042,37.508],[45.664,37.5018],[45.6663,37.4803],[45.6525,37.4871]]]}},{"type":"Feature","properties":{"name":"Sarygamysh Köli","featurecla":"Alkaline Lake","scalerank":4,"min_zoom":4},"geometry":{"type":"Polygon","coordinates":[[[57.8654,41.8272],[57.7623,41.8896],[57.6802,41.9031],[57.6784,41.9547],[57.7238,41.9835],[57.7267,42.0088],[57.5978,42.0698],[57.6046,42.1139],[57.6452,42.1221],[57.6369,42.1946],[57.614,42.2399],[57.5177,42.2926],[57.4533,42.3044],[57.407,42.3441],[57.3647,42.3453],[57.2646,42.3138],[57.1972,42.2405],[57.0721,41.947],[57.0582,41.7969],[57.0335,41.7395],[57.0456,41.6938],[57.0747,41.6674],[57.0794,41.7206],[57.118,41.7942],[57.1371,41.7966],[57.1624,41.7501],[57.2322,41.7068],[57.2416,41.6129],[57.3523,41.5405],[57.4356,41.5994],[57.4945,41.5755],[57.5586,41.6082],[57.6184,41.5952],[57.7085,41.6588],[57.8539,41.6827],[57.8548,41.7757],[57.8863,41.8075],[57.8654,41.8272]]]}},{"type":"Feature","properties":{"name":"Lake Tuz","featurecla":"Alkaline Lake","scalerank":4,"min_zoom":4},"geometry":{"type":"Polygon","coordinates":[[[33.4308,38.9604],[33.4726,38.981],[33.4423,39.0449],[33.3381,39.1523],[33.283,39.1317],[33.3178,39.0908],[33.3039,39.0493],[33.3325,38.9954],[33.3325,38.9574],[33.3225,38.9383],[33.2194,38.9204],[33.2021,38.9047],[33.1385,38.7381],[33.1532,38.7072],[33.2966,38.6383],[33.3548,38.5827],[33.4979,38.5288],[33.5415,38.4844],[33.59,38.5506],[33.5989,38.5974],[33.7428,38.6383],[33.6863,38.6595],[33.6295,38.7864],[33.5842,38.8465],[33.5783,38.8918],[33.5474,38.8038],[33.5468,38.7529],[33.4261,38.8506],[33.4137,38.8677],[33.4343,38.9133],[33.4205,38.9404],[33.4308,38.9604]]]}},{"type":"Feature","properties":{"name":"Lake Van","featurecla":"Alkaline Lake","scalerank":4,"min_zoom":4},"geometry":{"type":"Polygon","coordinates":[[[43.1313,38.3169],[43.153,38.3266],[43.1475,38.3655],[43.1625,38.3828],[43.2673,38.4402],[43.3064,38.4397],[43.3253,38.4865],[43.3161,38.5424],[43.2166,38.5868],[43.1907,38.6207],[43.083,38.6119],[43.156,38.6375],[43.2196,38.7549],[43.292,38.7791],[43.3088,38.8356],[43.3391,38.8459],[43.39,38.8226],[43.4289,38.8588],[43.5013,38.8712],[43.5348,38.9133],[43.6591,38.9327],[43.6446,38.9401],[43.6591,38.9468],[43.5902,38.981],[43.4015,39.0016],[43.3535,38.9848],[43.3506,38.9674],[43.3088,38.981],[43.3155,38.9542],[43.2711,38.9624],[43.2034,38.9401],[43.1619,38.948],[43.0721,38.9309],[43.0721,38.893],[43.0971,38.8582],[43.1295,38.8518],[43.1478,38.8653],[43.1439,38.8803],[43.1101,38.878],[43.1374,38.9059],[43.2069,38.8918],[43.1757,38.8444],[43.0924,38.8041],[42.9564,38.7844],[42.9164,38.7967],[42.8098,38.7855],[42.7333,38.8035],[42.4678,38.7367],[42.4354,38.7037],[42.494,38.6248],[42.4107,38.618],[42.4201,38.5812],[42.3909,38.5771],[42.3497,38.5286],[42.2997,38.5077],[42.3082,38.4876],[42.3279,38.4873],[42.4572,38.5168],[42.4748,38.4841],[42.5013,38.4712],[42.5758,38.5079],[42.5988,38.4856],[42.6632,38.4723],[42.6918,38.4388],[42.7739,38.4402],[42.798,38.4564],[42.8019,38.4815],[42.8566,38.4738],[42.8763,38.5059],[42.8702,38.4944],[42.8911,38.4741],[42.8722,38.4717],[42.8702,38.4535],[42.9252,38.4535],[42.939,38.4329],[42.9252,38.4188],[42.9049,38.4329],[42.8978,38.4058],[42.9532,38.3775],[42.9352,38.344],[42.9944,38.3354],[43.0191,38.3166],[43.1313,38.3169]]]}},{"type":"Feature","properties":{"name":"Lake Abaya","featurecla":"Alkaline Lake","scalerank":5,"min_zoom":4.7},"geometry":{"type":"Polygon","coordinates":[[[37.9999,6.6165],[37.964,6.5933],[37.9066,6.5156],[37.8722,6.5112],[37.8542,6.4473],[37.8966,6.2757],[37.8778,6.2612],[37.8757,6.1985],[37.8445,6.1444],[37.8498,6.1835],[37.8277,6.2],[37.7073,6.117],[37.6852,6.0101],[37.7279,5.9998],[37.8139,6.0443],[37.8333,6.089],[37.8501,6.0499],[37.8845,6.145],[37.9387,6.2165],[38.0029,6.2556],[38.0073,6.3151],[38.0361,6.3704],[38.0832,6.4002],[38.0944,6.4499],[38.1224,6.4499],[38.1085,6.487],[38.15,6.5503],[38.1389,6.5945],[38.0744,6.5547],[38.0243,6.585],[38.0111,6.6221],[37.9999,6.6165]]]}},{"type":"Feature","properties":{"name":"Dead Sea","featurecla":"Alkaline Lake","scalerank":5,"min_zoom":4.7},"geometry":{"type":"Polygon","coordinates":[[[35.5111,31.1995],[35.4213,31.2516],[35.4007,31.2304],[35.3698,31.2354],[35.3586,31.2104],[35.4007,31.1009],[35.4593,31.0873],[35.5178,31.1103],[35.5037,31.1391],[35.5311,31.1697],[35.5111,31.1995]]]}},{"type":"Feature","properties":{"name":"Lake Hammar","featurecla":"Alkaline Lake","scalerank":5,"min_zoom":4.7},"geometry":{"type":"MultiPolygon","coordinates":[[[[46.7054,30.7506],[46.6872,30.7506],[46.7622,30.7241],[46.7561,30.7438],[46.7699,30.7438],[46.7487,30.7582],[46.7054,30.7506]]],[[[47.6032,30.712],[47.5717,30.7303],[47.5991,30.7303],[47.5205,30.7438],[47.3981,30.7344],[47.3795,30.7582],[47.4826,30.7759],[47.5146,30.7991],[47.5035,30.8127],[47.4037,30.8194],[47.3407,30.75],[47.3121,30.7441],[47.2076,30.7576],[47.2059,30.7735],[47.2218,30.7785],[47.1923,30.8094],[47.0919,30.8194],[47.1223,30.8306],[47.1131,30.8371],[47.0887,30.8401],[47.0437,30.8071],[47.0236,30.8127],[46.9615,30.8607],[46.9683,30.8742],[46.9065,30.9022],[46.9003,30.8816],[46.9003,30.9151],[46.8453,30.9113],[46.8311,30.9322],[46.807,30.9242],[46.8043,30.8954],[46.7899,30.9081],[46.7967,30.929],[46.7749,30.9042],[46.6804,30.8886],[46.7352,30.8468],[46.6942,30.8194],[46.716,30.8103],[46.804,30.8271],[46.7829,30.7991],[46.7967,30.7847],[46.8517,30.7847],[46.7902,30.7438],[46.8285,30.715],[46.8585,30.7097],[46.91,30.7294],[46.9065,30.7438],[46.845,30.7644],[46.9083,30.7974],[46.9268,30.7924],[46.9345,30.7582],[46.9821,30.7506],[46.9683,30.7303],[46.9851,30.7197],[47.0027,30.7241],[46.9904,30.7329],[47.0054,30.7417],[47.0955,30.7644],[47.1049,30.7553],[47.0919,30.7376],[47.1908,30.7097],[47.3889,30.7002],[47.4043,30.6578],[47.4278,30.6481],[47.4755,30.6481],[47.5302,30.6761],[47.5408,30.662],[47.6333,30.6826],[47.6032,30.712]]]]}},{"type":"Feature","properties":{"name":"Lake Assal","featurecla":"Alkaline Lake","scalerank":5,"min_zoom":4.7},"geometry":{"type":"Polygon","coordinates":[[[42.4221,11.7111],[42.3845,11.6923],[42.4113,11.6246],[42.4489,11.6746],[42.4221,11.7111]]]}},{"type":"Feature","properties":{"name":"Tengiz Köli","featurecla":"Alkaline Lake","scalerank":6,"min_zoom":5},"geometry":{"type":"Polygon","coordinates":[[[69.6161,50.6302],[69.4978,50.5895],[69.5896,50.6649],[69.6179,50.6637],[69.6131,50.6755],[69.5716,50.6929],[69.3085,50.7161],[69.2743,50.699],[69.2932,50.6378],[69.1781,50.5966],[69.1616,50.5312],[69.0886,50.4736],[69.1207,50.538],[69.1416,50.5504],[69.1354,50.5604],[69.0483,50.5754],[69.0371,50.556],[68.9308,50.5754],[68.8169,50.5648],[68.7621,50.508],[68.7748,50.4727],[68.7474,50.4179],[68.725,50.2987],[68.6509,50.2501],[68.6615,50.2413],[68.7342,50.2648],[68.7668,50.2328],[68.7595,50.2198],[68.8216,50.2198],[68.8148,50.2057],[68.9688,50.1789],[69.1439,50.226],[69.116,50.2563],[69.1263,50.2704],[69.1713,50.2675],[69.1854,50.2607],[69.1781,50.2466],[69.2743,50.254],[69.2864,50.2716],[69.2617,50.3199],[69.264,50.3532],[69.1448,50.3679],[69.1027,50.3093],[69.0789,50.3558],[69.0338,50.3673],[69.0112,50.4232],[69.0497,50.4447],[69.0409,50.4191],[69.0574,50.42],[69.0753,50.4527],[69.1307,50.4594],[69.1439,50.4936],[69.2057,50.5418],[69.2137,50.5916],[69.3185,50.6204],[69.3465,50.6722],[69.4521,50.6684],[69.4721,50.6519],[69.2743,50.5831],[69.4036,50.5745],[69.4415,50.5928],[69.5398,50.5783],[69.647,50.6246],[69.6161,50.6302]]]}},{"type":"Feature","properties":{"name":"Qusmuryn Köli","featurecla":"Alkaline Lake","scalerank":6,"min_zoom":5},"geometry":{"type":"Polygon","coordinates":[[[64.9575,52.9397],[64.918,52.8773],[64.8748,52.8508],[64.8821,52.8373],[64.8244,52.8226],[64.7891,52.7516],[64.7014,52.7034],[64.6761,52.6727],[64.6004,52.6524],[64.5551,52.565],[64.4632,52.5294],[64.4753,52.5164],[64.5242,52.5164],[64.5545,52.5435],[64.6004,52.522],[64.6516,52.5668],[64.7373,52.563],[64.7029,52.5841],[64.7373,52.6039],[64.7102,52.6251],[64.7326,52.6312],[64.7785,52.5977],[64.82,52.6392],[64.9086,52.6745],[64.9634,52.741],[64.9363,52.8373],[64.9978,52.9153],[64.9575,52.9397]]]}},{"type":"Feature","properties":{"name":"Chew Bahir","featurecla":"Alkaline Lake","scalerank":7,"min_zoom":5.7},"geometry":{"type":"Polygon","coordinates":[[[36.9838,4.8869],[36.9608,4.8848],[36.9552,4.8554],[36.9231,4.8386],[36.881,4.7803],[36.8001,4.8309],[36.7194,4.5392],[36.7324,4.4762],[36.7966,4.5416],[36.9049,4.5613],[36.9685,4.6396],[37.0014,4.8065],[36.9838,4.8869]]]}},{"type":"Feature","properties":{"name":"Lake Chamo","featurecla":"Alkaline Lake","scalerank":7,"min_zoom":5.7},"geometry":{"type":"Polygon","coordinates":[[[37.7,5.9557],[37.6888,5.9666],[37.6111,5.9165],[37.6058,5.8721],[37.5472,5.782],[37.5554,5.7055],[37.705,5.7841],[37.7294,5.9056],[37.7264,5.9407],[37.7,5.9557]]]}},{"type":"Feature","properties":{"name":"Lake Abbe","featurecla":"Alkaline Lake","scalerank":7,"min_zoom":5.7},"geometry":{"type":"Polygon","coordinates":[[[41.7984,11.2775],[41.7734,11.2887],[41.721,11.271],[41.6871,11.2245],[41.6801,11.183],[41.6971,11.1394],[41.7722,11.0797],[41.8422,11.1338],[41.8823,11.2066],[41.7984,11.2775]]]}},{"type":"Feature","properties":{"name":"Aydar Ko‘l","featurecla":"Alkaline Lake","scalerank":7,"min_zoom":5.7},"geometry":{"type":"Polygon","coordinates":[[[68.0339,41.043],[68.0203,41.061],[67.9052,40.9521],[67.7648,40.8817],[67.5399,40.8208],[67.3727,40.8205],[67.3539,40.8314],[67.4084,40.8738],[67.2891,40.8911],[67.2674,40.9468],[67.1979,40.9615],[67.1164,40.9532],[67.0849,40.9771],[66.9848,41.0015],[66.7693,40.9939],[66.4938,41.0195],[66.4437,41.0027],[66.2756,41.0265],[66.1285,41.0177],[66.1146,41.0036],[66.8526,40.8935],[67.0748,40.776],[67.1561,40.801],[67.2518,40.7693],[67.3221,40.766],[67.3295,40.7466],[67.3095,40.6886],[67.3262,40.6686],[67.4216,40.5956],[67.6068,40.4973],[67.6306,40.5126],[67.6047,40.5505],[67.5917,40.6321],[67.4852,40.7289],[67.502,40.7478],[67.6179,40.7584],[67.7083,40.8096],[67.8037,40.7834],[67.8461,40.819],[67.9047,40.8146],[67.9753,40.8614],[68.0586,41.0551],[68.0339,41.043]]]}},{"type":"Feature","properties":{"name":"Great Bitter Lake","featurecla":"Alkaline Lake","scalerank":8,"min_zoom":6},"geometry":{"type":"Polygon","coordinates":[[[32.5601,30.1795],[32.573,30.2119],[32.5642,30.2504],[32.4597,30.2919],[32.4476,30.3467],[32.3861,30.4224],[32.3057,30.3997],[32.2966,30.3467],[32.3313,30.3099],[32.4576,30.2407],[32.4918,30.2655],[32.5368,30.2298],[32.5368,30.2033],[32.5601,30.1795]]]}},{"type":"Feature","properties":{"name":"Qypshaq Kli","featurecla":"Alkaline Lake","scalerank":9,"min_zoom":7},"geometry":{"type":"Polygon","coordinates":[[[68.4425,50.1503],[68.4177,50.1698],[68.4313,50.1851],[68.4189,50.1957],[68.3618,50.1924],[68.34,50.1795],[68.3212,50.1303],[68.3865,50.1162],[68.4021,50.0912],[68.4345,50.0809],[68.4531,50.0968],[68.4425,50.1503]]]}},{"type":"Feature","properties":{"name":"Ozero Shalkar","featurecla":"Alkaline Lake","scalerank":9,"min_zoom":7},"geometry":{"type":"Polygon","coordinates":[[[70.0064,50.513],[69.9935,50.5371],[69.9458,50.5345],[69.9929,50.4527],[69.9714,50.4415],[69.9375,50.4721],[69.9234,50.5139],[69.8163,50.5781],[69.7771,50.5792],[69.806,50.538],[69.8725,50.5156],[69.9322,50.4191],[69.9537,50.4073],[70.0038,50.4241],[70.0208,50.4459],[70.0064,50.513]]]}},{"type":"Feature","properties":{"name":"South Aral Sea","featurecla":"Lake","scalerank":0,"min_zoom":1},"geometry":{"type":"Polygon","coordinates":[[[58.3121,45.062],[58.2814,44.9638],[58.2365,44.9082],[58.221,44.8467],[58.2379,44.7657],[58.3211,44.603],[58.3027,44.5603],[58.2622,44.5574],[58.2368,44.5245],[58.235,44.4609],[58.26,44.4315],[58.3643,44.4247],[58.4168,44.444],[58.4831,44.5044],[58.5243,44.5692],[58.5788,44.7562],[58.5626,44.7724],[58.595,44.7724],[58.6245,44.818],[58.623,44.8548],[58.567,44.9152],[58.588,44.9501],[58.588,44.9899],[58.5468,45.0076],[58.644,45.0724],[58.6823,45.1298],[58.6292,45.2638],[58.6381,45.3536],[58.6719,45.4596],[58.7353,45.5067],[58.7662,45.5627],[58.8694,45.5961],[58.9016,45.6893],[58.9142,45.7948],[58.9867,45.8196],[59.0452,45.875],[59.1048,45.8967],[59.1726,45.8748],[59.244,45.8923],[59.3014,45.9582],[59.3029,46.0024],[59.2403,45.9939],[59.1792,45.9258],[59.149,45.9468],[59.0791,45.9435],[59.0599,45.8945],[58.8494,45.9181],[58.8137,45.8817],[58.8383,45.8342],[58.7459,45.8515],[58.7117,45.8349],[58.6527,45.722],[58.6384,45.5902],[58.6044,45.5791],[58.574,45.5321],[58.5494,45.4077],[58.417,45.2907],[58.3725,45.1305],[58.3121,45.062]]]}},{"type":"Feature","properties":{"name":"Barsakelmes Lake","featurecla":"Lake","scalerank":6,"min_zoom":5},"geometry":{"type":"Polygon","coordinates":[[[59.7287,46.0828],[59.8133,46.1237],[59.8054,46.2439],[59.7846,46.2842],[59.7308,46.3217],[59.5895,46.3041],[59.5703,46.3239],[59.5041,46.3188],[59.5917,46.2091],[59.7287,46.0828]]]}},{"type":"Feature","properties":{"name":"North Aral Sea","featurecla":"Lake","scalerank":0,"min_zoom":1},"geometry":{"type":"Polygon","coordinates":[[[60.7829,46.086],[60.8625,46.09],[60.8683,46.1125],[60.9463,46.1404],[60.9767,46.1699],[61.095,46.192],[61.1201,46.217],[61.1657,46.2155],[61.2171,46.2369],[61.3003,46.3849],[61.277,46.4293],[61.2796,46.4798],[61.3106,46.4754],[61.4504,46.5844],[61.5285,46.6771],[61.4269,46.658],[61.4092,46.6727],[61.3665,46.6492],[61.315,46.6477],[61.2966,46.6109],[61.2068,46.58],[61.2362,46.5697],[61.2303,46.5476],[61.2671,46.4997],[61.2266,46.4681],[61.1339,46.4496],[60.8924,46.4732],[60.8394,46.5085],[60.7761,46.5814],[60.8193,46.7125],[60.8108,46.7471],[60.58,46.7839],[60.5248,46.7773],[60.5256,46.7508],[60.6353,46.7154],[60.7656,46.6425],[60.6706,46.5892],[60.58,46.563],[60.4729,46.6061],[60.477,46.6184],[60.4593,46.6275],[60.4539,46.5736],[60.4109,46.4825],[60.3676,46.617],[60.3329,46.6692],[60.2867,46.7001],[60.2373,46.6957],[60.1159,46.6192],[60.0364,46.6011],[60.0017,46.5719],[59.9774,46.4813],[59.9884,46.4379],[60.1334,46.3565],[60.3484,46.4029],[60.4714,46.3307],[60.5796,46.2932],[60.6157,46.3278],[60.665,46.3271],[60.7058,46.3752],[60.7224,46.3742],[60.8248,46.201],[60.8075,46.1588],[60.7523,46.1177],[60.7829,46.086]]]}},{"type":"Feature","properties":{"featurecla":"Lake","scalerank":9,"min_zoom":7},"geometry":{"type":"Polygon","coordinates":[[[59.8092,46.0173],[59.8608,45.9872],[59.928,46.0208],[59.9602,45.9433],[60.0113,45.9706],[60.0264,46.0171],[60.0064,46.0505],[59.9817,46.0603],[59.8092,46.0173]]]}}]}